Assistance,Agency,Address,City,State,Zip,County,Services,Eligibility,Hours,Phone,Website,Latitude,Longitude
Food Pantry,SILVER THREAD PUBLIC HEALTH DISTRICT,304 W 3rd St,Lake City,CO,81235,HINSDALE COUNTY,"Provides a food box to individuals, seniors and families in need.",Individuals in the service area Area Served: Hinsdale County,"Monday - Friday, 8 a.m. - 4:30 p.m.",(970) 944-0321,http://silverthreadpublichealth.org,38.028217,-107.31449
Food Pantry,PINE RIVER SHARES,658 S East St,Bayfield,CO,81122,LA PLATA COUNTY,Provides food for community members in need of assistance. Also offers a backpack of food for students attending the following schools to take home every weekend: Bayfield Elementary School Bayfield Primary SchoolIgnacio Elementary Schoo...,"Must be residents of Bayfield and the Pine River Valley Area Served: Zip Codes Served:  81122, 81137, 81121","Monday - Thursday, 9 a.m. - 3 p.m.",(970) 884-6040,http://pinerivershares.org,37.2240474,-107.5983059
Food Pantry,COMMUNITY UNITED METHODIST CHURCH OF PAGOSA SPRINGS,434 Lewis St,Pagosa Springs,CO,81147,ARCHULETA COUNTY,Provides food to individuals and families in Archuleta County who are in need. Services limited to one time a week per individual.,No restrictions applied Area Served: Archuleta County,"Tuesday - Thursday, 8 a.m. - 12 p.m.",(970) 264-5508,http://cumcps.org,37.2678233,-107.0117959
Food Pantry,RESTORATION FELLOWSHIP,264 Village Dr,Pagosa Springs,CO,81147,ARCHULETA COUNTY,Provides food boxes for residents of Archuleta County. -Provides food delivery to homebound individuals,No restrictions. Area Served: Archuleta County,"Monday-Friday, 8:00am-5:00pm",(970) 731-2937,http://restorationfellowship.net,37.2580963,-107.0750371
Food Pantry,OURAY COUNTY FOOD PANTRY,602 N Cora St,Ridgway,CO,81432,OURAY COUNTY,Provides groceries based on a shopping list for those in need. The number of people in the household determines the amount of food received...,Individuals must be a resident of Ouray County. Area Served:  Ouray County,"Thursday, 12:30 pm - 3:30 pm",(970) 626-4273,http://ouraycountyfoodpantry.org,38.156621,-107.7572652
Food Assistance,LOVE INC OF THE YAMPA VALLEY,1198 W Victory Way,Craig,CO,81625,MOFFAT COUNTY,Provides food to qualified individuals and families through: The Emergency Food Assistance Program (TEFAP) The Commodity Supplemental Food Program (CSFP)Donation...,"For TEFAP assistance, households must meet the following income guidelines or be participating in one of the programs l...","3rd Tuesday, 10 a.m. - 12 p.m.; 3rd Thursday, 3 p...",(970) 826-4400,http://loveincyampavalley.org/services,40.5142641,-107.5612612
Food Pantry,CONNECTIONS 4 LIFE,6436 S U.S. Hwy 85/87 Unit U,Colorado Springs,CO,80911,EL PASO COUNTY,Provides a food pantry to residents in need.,Residents of the service area Area Served: El Paso County,Hours Vary,(719) 387-9919,http://connections4lifecenter.org,38.745604,-104.738987
Food Pantry,GOD'S PANTRY MINISTRY,30 Widefield Blvd,Colorado Springs,CO,80911,EL PASO COUNTY,Provides a food pantry.,No restrictions applied Area Served: El Paso County,"Monday - Saturday, 9 a.m. - 3 p.m.",(719) 382-0643,http://godspantryco.org,38.7360794,-104.7271127
Food Pantry,GRAND VALLEY CATHOLIC OUTREACH,245 S 1st St,Grand Junction,CO,81501,MESA COUNTY,Provides food box for Mesa County residents in need on a once-a-month basis. Food type is available depending on donated items available...,No restrictions applied Area Served: Mesa County,"Monday - Friday, 9 a.m. - 11:30 a.m.",(970) 241-3658,http://catholicoutreach.org,39.0655869,-108.5712505
Food Assistance,WOODLAND PARK COMMUNITY CHURCH,700 Valley View Dr Unit D,Woodland Park,CO,80863,TELLER COUNTY,Provides emergency food necessities and delivers pre-cooked meals for individuals in need.,"No restrictions applied Area Served: Zip Codes Served:  80813, 80814, 80816, 80860, 80863, 80866, 81155","Monday - Thursday, 9 a.m. - 12 p.m.",(719) 229-4512,http://woodlandparkcommunitychurch.com/storehouse,39.0121422,-105.0620232
Food Pantry,LA PLATA FAMILY CENTERS COALITION,495 Florida Rd,Durango,CO,81301,LA PLATA COUNTY,"Provides a food box to families in need in the community, including:Baby food Formula Diapers","No restriction applied Area Served: La Plata, San Juan counties","Monday - Thursday, 8:30 a.m. - 4:30 p.m.; Friday,...",(970) 385-4747,http://lpfcc.org,37.2838609,-107.8699575
Food Pantry,CENTER TOWARD SELF-RELIANCE,901 W 8th St,Pueblo,CO,81003,PUEBLO COUNTY,Food Pantry provides food assistance to low-income individuals who are in need,"Open to the Public, low-income individuals who are in need Area Served: Pueblo County","Monday - Friday, 8 a.m. - 4:30 p.m.",(719) 546-1271,https://cfdpueblo.org,38.274091,-104.6197
Food Pantry,CITY OF COLORADO SPRINGS,4290 Deerfield Hills Rd,Colorado Springs,CO,80916,EL PASO COUNTY,Provides a drive-thru style food pantry to those in need.,No restrictions applied Area Served: El Paso County,"Monday - Friday, 9 a.m. - 6 p.m.",(719) 385-5996,http://coloradosprings.gov/deeraeld-hills-community-center,38.7845737,-104.7478808
Food Pantry,NEW LIFE COMMUNITY CHURCH,17690 E Iliff Ave,Aurora,CO,80013,ARAPAHOE COUNTY,Provides bags of food to the community. The pantry may be visited on a monthly or bi-monthly basis.,"No restrictions applied Area Served: Adams, Arapahoe, Broomfield, Denver, Douglas, Jefferson counties","Tuesday, 1 p.m. - 4 p.m.; Saturday, 10 a.m. - 1 p...",(303) 368-7567,http://nlccaurora.org,39.6746072,-104.7782004
Pet Food Pantry Locator,COLORADO PET PANTRY,P.O. Box 323,Boulder,CO,80306,BOULDER COUNTY,Provides free temporary pet food through various food pantry organizations throughout Colorado.,No restrictions applied Area Served: Statewide,"Monday - Sunday, 9 a.m. - 5 p.m. (Administrative ...",(303) 818-0618,http://coloradopetpantry.org/events/category/pet-food-banks/,40.102555,-105.3632079
Mobile Food Pantry,COMMUNITY FOOD SHARE,13200 Westlake Dr,Broomfield,CO,80020,BROOMFIELD COUNTY,"Operates a mobile food pantry at rotating locations, offering : Fresh produce Dairy Non-perishable pantry items","Residents of the service area Area Served: Boulder, Broomfield counties","2nd, 4th Wednesday, 2:30 p.m. - 4 p.m.",(303) 652-3663,http://communityfoodshare.org/get-food/services-we-provide/mobile-pantries/,39.932143,-105.028041
Food Pantry,FISHES AND LOAVES,2221 N Wahsatch Ave,Colorado Springs,CO,80907,EL PASO COUNTY,Provides a food pantry to those in need living in Colorado Springs.,Residents of Colorado Springs Area Served: City of Colorado Springs,"Saturday, 10 a.m. - 12 p.m.",(720) 373-9760,No Website Listed,38.8649785,-104.815912
Food Pantry,TRINITY CHURCH OF THE NAZARENE,5055 El Camino Dr,Colorado Springs,CO,80918,EL PASO COUNTY,Provides a food pantry to those in need. Clothing may also be offered depending on availability.,No restrictions applied Area Served: El Paso County,"Sunday - Friday, 8 a.m. -12 p.m., 12:30 p.m. - 4:...",(719) 599-7990,http://trinitynazarene.net/ministries/trinity-cares/,38.9047925,-104.7710042
Food Pantry,OPEN ARMS FOOD BANK COLORADO SPRINGS,6540 Templeton Gap Rd,Colorado Springs,CO,80923,EL PASO COUNTY,Provides a food pantry to those in need on a once-a-month basis.,Residents of the service area Area Served: El Paso County,"3rd Saturday, 10 a.m. - 12 p.m.",(719) 591-1800,http://churchforallnations.com/openarms,38.9271667,-104.7169895
Food Pantry,PIKES PEAK CHRISTIAN CHURCH,4955 Bradley Rd,Colorado Springs,CO,80911,EL PASO COUNTY,Provides a food pantry to those in need.,"Residents of the service area Area Served: Zip Codes Served:  80817, 80911, 80916, 80925, 80926","Monday, Wednesday, 10 a.m. - 12 p.m., 1 p.m. - 4 ...",(719) 392-8855,http://pikespeakchristianchurch.com/help/,38.7622479,-104.6732616
Food Pantry,CHRISTIAN HOUSE OF PRAYER,4360 Bradley Rd,Colorado Springs,CO,80911,EL PASO COUNTY,Provides a food pantry to those in need.,No restrictions applied Area Served: El Paso County,"1st, 3rd Saturday, 10 a.m. - 12 p.m.",(719) 596-7469,http://chopcos.org/food-pantry,38.7622479,-104.6732616
Food Pantry,REDEEMED CHRISTIAN CHURCH OF GOD,3525 N Carefree Cir,Colorado Springs,CO,80917,EL PASO COUNTY,Provides a food pantry to those in need.,No restrictions applied Area Served: El Paso County,"Saturday, 11 a.m. - 12:30 p.m.",(719) 313-9053,No Website Listed,38.8822421,-104.7561668
Food Pantry,MANITOU SPRINGS COMMUNITY PANTRY,110 Ca単on Ave,Manitou Springs,CO,80829,EL PASO COUNTY,Provides a food pantry to those in need.,Residents of the service area Area Served: Zip Code Served:  80829,"Wednesday, 1 p.m. - 2 p.m.",(719) 685-9259,http://standrewsmanitousprings.org/manitou-springs-food-pantry/,38.8581842,-104.9163419
Food Pantry,GOOD SHEPHERD UNITED METHODIST CHURCH,1201 Leta Dr,Colorado Springs,CO,80911,EL PASO COUNTY,Provides a food pantry to those in need.,No restrictions applied Area Served: El Paso County,"Thursday, 10 a.m. - 12 p.m.",(719) 392-5782,http://gsumc-cs.org/,38.766318,-104.738811
Food Pantry,LIGHTHOUSE BAPTIST CHURCH,4280 Hopeful Dr,Colorado Springs,CO,80917,EL PASO COUNTY,Provides a food pantry to those in need.,No restrictions applied Area Served: El Paso County,"Sunday, 6 p.m. - 7 p.m.",(719) 444-8502,http://lbcsprings.org,38.8934882,-104.7471265
Food Pantry,ST. RAPHAEL EPISCOPAL CHURCH,802 Leta Dr,Colorado Springs,CO,80911,EL PASO COUNTY,Provides a food pantry for those in need.,"Individuals living in the service area Area Served: El Paso County, Zip Codes Served:  80910, 80911, 80817","Friday, 10 a.m. - 12 p.m.",(719) 392-3563,http://straphaelepiscopal.org/,38.765272,-104.741755
Food Pantry,SPRINGS TABERNACLE CHURCH,6160 Burgess Rd,Colorado Springs,CO,80908,EL PASO COUNTY,Provides a food pantry for those in need.,No restrictions applied Area Served: El Paso County,"Monday - Sunday, 9 a.m. - 5 p.m.",(719) 495-3192,http://springstabernacle.com/,40.4671803,-106.7920972
Food Pantry,OPEN BIBLE BAPTIST CHURCH,824 S Union Blvd,Colorado Springs,CO,80910,EL PASO COUNTY,Provides a food pantry to those in need.,No restrictions applied Area Served: El Paso County,"3rd Saturday, 12 p.m. - 2 p.m. (Food Pantry)",(719) 475-2001,http://openbiblecares.org/schedule-overview,38.8205985,-104.7936946
Food Pantry,IMMACULATE HEART OF MARY - POPE JOHN PAUL II,353 S Pagosa Blvd,Pagosa Springs,CO,81147,ARCHULETA COUNTY,"Provides a food box to individuals, seniors and families in the community in need.",No restrictions applied Area Served: Archuleta County,"Monday - Thursday, 9 a.m. - 1 p.m.; Friday, 9 a.m...",(970) 731-5744,http://ihmjp2.org/food-pantry,37.2489634,-107.0786787
Food Pantry,DURANGO FOOD BANK,194 Bodo Dr #C,Durango,CO,81303,LA PLATA COUNTY,Distributes food to individuals and families in need. Services are limited to two times per month.,Low-income individuals and families. Area Served: La Plata County,"Monday - Friday, 9 a.m. - 3 p.m.",(970) 375-2672,http://durangoareafoodbank.org/food-assistance-programs/,37.245481,-107.877059
Food Pantry,EVANGEL ASSEMBLY OF GOD,209 W 5th St,Cortez,CO,81321,MONTEZUMA COUNTY,Provides emergency food box to those in need.,No restrictions applied Area Served: Montezuma County,"Monday - Thursday, 12 p.m. - 4 p.m.",(970) 565-4198,http://facebook.com/cortezevangelassemblyofgod,37.3432181,-108.5881688
Food Pantry - Cortez Family Worship Center,CORTEZ FAMILY WORSHIP CENTER,500 N Washington St,Cortez,CO,81321,MONTEZUMA COUNTY,"Provides a food box to individuals, seniors and families who live in the cities of Cortez, Dolores or Mancos.","Residents of the cities of Cortez, Dolores or Mancos Area Served: Montezuma County","Monday - Friday, 9:30 am - 2 pm",(970) 565-3709,No Website Listed,37.3544479,-108.5810914
Food Pantry,MANCOS FOOD SHARE,680 Grand Ave,Mancos,CO,81328,MONTEZUMA COUNTY,"Provides a food box to needy individuals, seniors, and families in Mancos CO.","Residents of Mancos, Colorado. Area Served: Town of Mancos",Hours:Monday 3:00 pm - 5:00 pm except the 4th Monday wh...,No Phone Listed,http://www.facebook.com/Mancos-FoodShare-1032159926891842,37.345067,-108.297708
Food Pantry,WEST END FAMILY LINK CENTER,853 Main St,Nucla,CO,81424,MONTROSE COUNTY,"Provides a food box to individuals, seniors and families in need. Also administers the CSFP and TEFAP",programs for qualifying applicants...,No restrictions applied Area Served: Montrose County,"Monday - Friday, 8:30 a.m. - 4 p.m.",(970) 864-2245,38.2632714,-108.545784
Emergency Food Assistance Program (TEFAP),OURAY COUNTY FOOD PANTRY,602 N Cora St,Ridgway,CO,81432,OURAY COUNTY,Provides USDA food to low-income households.,Households must earn less than 200% of the Federal Poverty Level (FPL) or participate in one of the following governmen...,"Thursday, 12:30 pm - 3:30 pm",(970) 626-4273,http://ouraycountyfoodpantry.org,38.156621,-107.7572652
Commodity Supplemental Food Program (CSFP),OURAY COUNTY FOOD PANTRY,602 N Cora St,Ridgway,CO,81432,OURAY COUNTY,Provides healthy food staples for low-income seniors.,Individuals must be:Aged 60 years or olderLiving in ColoradoEarning less than 130% of the Federal Poverty Level (FPL) A...,"Thursday, 12:30 pm - 3:30 pm",(970) 626-4273,http://ouraycountyfoodpantry.org,38.156621,-107.7572652
Mobile Food Pantry,FOOD BANK FOR LARIMER COUNTY,201 S Impala Dr,Fort Collins,CO,80521,LARIMER COUNTY,Offers a drive-through mobile food pantry for those in need.,Larimer County residents Area Served: Larimer County,"1st, 3rd Thursday, 5:15 p.m. - 6:30 p.m.",(970) 493-4477,http://foodbanklarimer.org/mobiles,40.5872724,-105.1219739
Food & Clothing Bank,AURORA FIRST SEVENTH DAY ADVENTIST CHURCH,11400 E Mississippi Ave,Aurora,CO,80012,ARAPAHOE COUNTY,Provides a food and clothing bank for the community.,"No restrictions applied Area Served: Arapahoe, Denver counties","3rd Sunday, 10 a.m. - 12 p.m.",(303) 755-1617,http://auroraarstco.adventistchurch.org,39.6961142,-104.8550663
Food Pantry,VILLAGE EXCHANGE CENTER,1609 Havana St,Aurora,CO,80010,ADAMS COUNTY,"Provides individuals and families with culturally relevant food and personal hygiene items, including: Fresh produce Meals Diapers Toiletries","No restrictions applied Area Served: Adams, Arapahoe, Broomfield, Denver, Douglas, Jefferson counties","Monday - Friday, 9 a.m. - 5 p.m.",(720) 668-9968,http://villageexchangecenter.org/programs/village-pantry/,39.742282,-104.8661782
Food Pantry,CALVARY CHAPEL FOOD PANTRY,103 E Bridge St,Brighton,CO,80601,ADAMS COUNTY,Offers food to individuals/families in need. All items are subject to availability.,"No restrictions applied Area Served: Adams, Arapahoe, Broomfield, Denver, Douglas, Jefferson counties","2nd, 4th Monday, 5 p.m. - 6 p.m.",(303) 659-1886,No Website Listed,39.9870311,-104.8221776
Food Pantry,METRO CARING,1100 E 18th Ave,Denver,CO,80218,DENVER COUNTY,"Provides a fresh food market where the community can choose from an array of nutritious foods,",including:Fresh fruits and vegetables Whole grains Dairy Lean protein Baby formula and diapers are offered when they're available...,No restrictions applied Area Served: Statewide,"Monday, Thursday, 9 a.m. - 11:30 a.m. - 12:30 p.m...",(303) 860-7200,39.7446234,-104.9730507
Mobile Food Pantry,FOOD BANK OF THE ROCKIES,3060 S Monaco St Pkwy,Denver,CO,80222,DENVER COUNTY,Provides food to communities by sending semi-trucks to set locations and distributing food for 1-2 hours.,"No restrictions applied Area Served: Adams, Arapahoe, Delta, Denver, Douglas, Eagle, Elbert, Garfield, Gilpin, Grand, Ja...","2nd, 4th Thursday, 3 p.m. (While Supplies Last)",(303) 375-5853,http://foodbankrockies.org,39.6614613,-104.9122488
Mobile Food Pantry,FOOD BANK OF THE ROCKIES,14000 E Jewell Ave,Aurora,CO,80012,ARAPAHOE COUNTY,Provides food to communities by sending semi-trucks to set locations and distributing food for 1-2 hours.,"No restrictions applied Area Served: Adams, Arapahoe, Delta, Denver, Douglas, Eagle, Elbert, Garfield, Gilpin, Grand, Ja...","2nd, 4th Wednesday, 3 p.m. (While Supplies Last)",(303) 375-5853,http://foodbankrockies.org,39.6810838,-104.826839
Mobile Food Pantry,FOOD BANK OF THE ROCKIES,1450 S Pierce St,Lakewood,CO,80232,JEFFERSON COUNTY,Provides food to communities by sending semi-trucks to set locations and distributing food for 1-2 hours.,,"No restrictions applied Area Served: Adams, Arapahoe, Delta, Denver, Douglas, Eagle, Elbert, Garfield, Gilpin, Grand, Ja...","1st Tuesday, 3 p.m. (While Supplies Last)",(303) 375-5853,39.6907746,-105.0714054
Mobile Food Pantry,FOOD BANK OF THE ROCKIES,13300 W 6th Ave,Denver,CO,80215,JEFFERSON COUNTY,Provides food to communities by sending semi-trucks to set locations and distributing food for 1-2 hours.,"No restrictions applied Area Served: Adams, Arapahoe, Delta, Denver, Douglas, Eagle, Elbert, Garfield, Gilpin, Grand, Ja...","1st Saturday, 9 a.m. (While Supplies Last)",(303) 375-5853,http://foodbankrockies.org,39.7260565,-105.0501581
Mobile Food Pantry,FOOD BANK OF THE ROCKIES,3601 W Belleview Ave,Littleton,CO,80123,ARAPAHOE COUNTY,Provides food to communities by sending semi-trucks to set locations and distributing food for 1-2 hours.,"No restrictions applied Area Served: Adams, Arapahoe, Delta, Denver, Douglas, Eagle, Elbert, Garfield, Gilpin, Grand, Ja...","4th Wednesday, 9 a.m. (While Supplies Last)",(303) 375-5853,http://foodbankrockies.org,39.624246,-105.035112
Mobile Food Pantry,FOOD BANK OF THE ROCKIES,15640 E 6th Ave,Aurora,CO,80011,ARAPAHOE COUNTY,Provides food to communities by sending semi-trucks to set locations and distributing food for 1-2 hours.,"No restrictions applied Area Served: Adams, Arapahoe, Delta, Denver, Douglas, Eagle, Elbert, Garfield, Gilpin, Grand, Ja...","1st Saturday, 9 a.m. (While Supplies Last)",(303) 375-5853,http://foodbankrockies.org,39.7255329,-104.8064915
Mobile Food Pantry,FOOD BANK OF THE ROCKIES,18000 E Arapahoe Rd,Aurora,CO,80016,ARAPAHOE COUNTY,Provides food to communities by sending semi-trucks to set locations and distributing food for 1-2 hours.,"No restrictions applied Area Served: Adams, Arapahoe, Delta, Denver, Douglas, Eagle, Elbert, Garfield, Gilpin, Grand, Ja...","4th Saturday, 2 p.m. (While Supplies Last)",(303) 375-5853,http://foodbankrockies.org,39.5881157,-104.6893405
Mobile Food Pantry,FOOD BANK OF THE ROCKIES,2746 Fifth St,Castle Rock,CO,80104,DOUGLAS COUNTY,Provides food to communities by sending semi-trucks to set locations and distributing food for 1 -2 hours.,"No restrictions applied Area Served: Adams, Arapahoe, Delta, Denver, Douglas, Eagle, Elbert, Garfield, Gilpin, Grand, Ja...","4th Saturday, 9 a.m. (While Supplies Last)",(303) 375-5853,http://foodbankrockies.org,39.377227,-104.831067
Mobile Food Pantry,FOOD BANK OF THE ROCKIES,6475 W 29th Ave,Wheat Ridge,CO,80214,JEFFERSON COUNTY,Provides food to communities by sending semi-trucks to set locations and distributing food for 1-2 hours.,"No restrictions applied Area Served: Adams, Arapahoe, Delta, Denver, Douglas, Eagle, Elbert, Garfield, Gilpin, Grand, Ja...","3rd Tuesday, 3 p.m. (While Supplies Last)",(303) 375-5853,http://foodbankrockies.org,39.758546,-105.0672737
Mobile Food Pantry,FOOD BANK OF THE ROCKIES,440 Powder Run Dr,Central City,CO,80427,GILPIN COUNTY,Provides food to communities by sending semi-trucks to set locations and distributing food for 1-2 hours.,"No restrictions applied Area Served:  Adams, Arapahoe, Delta, Denver, Douglas, Eagle, Elbert, Garfield, Gilpin, Grand, Ja...","3rd Tuesday, 11 a.m. (While Supplies Last)",(303) 375-5853,http://foodbankrockies.org,39.793099,-105.5093541
Food Pantry - Pueblo Community College,CARE AND SHARE - PUEBLO DISTRIBUTION CENTER,900 W Orman Ave,Pueblo,CO,81004,PUEBLO COUNTY,Food Pantry providing food to those in need.,Only open to students during COVID Bring ID or know SS# Area Served:  Pueblo County,"Hours:Hours vary, see Service for specific Hours",(719) 296-6995,https://careandshare.org,38.2631861,-104.6371719
Mobile Food Pantry,FOOD BANK OF THE ROCKIES,905 CO-83,Franktown,CO,80116,DOUGLAS COUNTY,Provides food to communities by sending semi-trucks to set locations and distributing food for 1-2 hours.,"No restrictions applied Area Served: Adams, Arapahoe, Delta, Denver, Douglas, Eagle, Elbert, Garfield, Gilpin, Grand, Ja...","2nd Friday, 9:30 a.m. (While Supplies Last)",(303) 375-5853,http://foodbankrockies.org,39.3762926,-104.751033
Food Bank,MOUNTAIN FAMILY CENTER,208 12th St,Kremmling,CO,80459,GRAND COUNTY,Provides food for families or individuals in need. Also offers emergency food items outside each location.,Individuals must be Grand County residents. Area Served: Grand County,"Tuesday, Thursday, 10 a.m. - 2 p.m.",(970) 557-3186,http://mountainfamilycenter.org,40.06057,-106.378597
Food Bank,MOUNTAIN FAMILY CENTER,312 5th St,Walden,CO,80480,JACKSON COUNTY,Provides food for families or individuals in need. Also offers emergency food items outside each location.,Individuals must be Grand County residents. Area Served: Grand County,"1st, 3rd, 4th Wednesday, 2 p.m. - 4 p.m.",(970) 557-3186,http://mountainfamilycenter.org,40.7297575,-106.2842403
Food Assistance,LIFTUP OF ROUTT COUNTY,227 Dodge Ave,Oak Creek,CO,80467,ROUTT COUNTY,"Provides food assistance, including:Food bank for the general community The Commodity Supplemental Food Program The Emergency Food Assistance Program for low-income household...",Individuals must be residents of Routt County. Additional eligibility requirements may apply. Area Served:  Routt County,"Tuesday, Thursday, 9:30 a.m. - 11:30 a.m.; Wednes...",(970) 870-8804,http://liftuprc.org,40.2755551,-106.9539921
Commodities and Food Assistance,FOOD BANK FOR LARIMER COUNTY,1301 Blue Spruce Dr,Fort Collins,CO,80524,LARIMER COUNTY,Provides a client choice food pantry for individuals in need. Also distributes the Commodities Supplemental Food Program (CSFP) to eligible seniors and The Emergency Food Assistance Program (TFAP)...,Low-income residents of Larimer County Area Served:  Larimer County,"Tuesday, Thursday - Saturday, 10 a.m. - 3 p.m.; W...",(970) 493-4477,http://foodbanklarimer.org/our-programs,40.6047193,-105.0725555
Emergency Assistance,HOUSE OF NEIGHBORLY SERVICE,375 Meadowlark Dr,Berthoud,CO,80513,LARIMER COUNTY,"Provides basic needs assistance, such as: Monthly food baskets (based on family size)Baby formula and diapers Clothing and household items Prescription assistance Bus tokens Gas vouchers for medical or job-related appointments (must be able to confirm...",Individuals must reside in the service area and have a maximum household income of 70% AMI.,Area Served:  Cities of Berthoud,"Tuesday, Thursday, 9 a.m. - 5 p.m.",(970) 667-4939 (Loveland Office),40.3032363,-105.1045129
Commodities,COLORADO EAST COMMUNITY ACTION AGENCY,183 E Ave,Limon,CO,80828,LINCOLN COUNTY,Provides The Emergency Food Assistance Program (TFAP) for qualified low-income residents.,"No restrictions applied Area Served: Cheyenne, Elbert, Kit Carson, Lincoln counties","Monday - Thursday, 10 a.m. - 3:30 p.m.",(719) 775-8586,No Website Listed,39.2617039,-103.6880308
Mobile Food Pantry,NEIGHBOR OUTREACH OF COLORADO,500 E 84th Ave,Thornton,CO,80229,ADAMS COUNTY,"Provides a mobile food pantry, offering:Fresh produce Canned goods Bread Meat",No restrictions applied Area Served: Statewide,"1st Thursday, 2 p.m. - 4 p.m.",(720) 938-4304,http://neighboroutreach.org,39.8473296,-104.9814198
Food Pantry - Ecumenical Church of Pueblo West,CARE AND SHARE - PUEBLO DISTRIBUTION CENTER,434 S Conquistador Ave,Pueblo West,CO,81007,PUEBLO COUNTY,Food Pantry providing food to those in need.,Residents of Pueblo County Area Served:  Pueblo County,"Hours:Tuesday, 5 p.m. to 7 p.m.; Thursday, 11 a.m. to 2...",(719) 547-3088,No Website Listed,38.327273,-104.77256
Food Pantry - Lynn Gardens Baptist Church,CARE AND SHARE - PUEBLO DISTRIBUTION CENTER,3804 W Pueblo Blvd,Pueblo,CO,81005,PUEBLO COUNTY,Food Pantry providing food to those in need.,Residents of Pueblo County Area Served:  Pueblo County,"Hours vary, see Service for specified Hours",(719) 564-4434,No Website Listed,38.2239923,-104.6567669
Food Pantry - Praise Assembly of God,CARE AND SHARE - PUEBLO DISTRIBUTION CENTER,2000 Troy Ave,Pueblo,CO,81001,PUEBLO COUNTY,Food Pantry providing food to those in need.,Residents of Pueblo County Area Served: Pueblo County,"Hours vary, see Service for specified Hours",(719) 544-9486,https://careandshare.org,38.285559,-104.573368
Food Pantry - Canon City SDA Church,CARE AND SHARE - PUEBLO DISTRIBUTION CENTER,3180 E Main St,Ca単on City,CO,81212,FREMONT COUNTY,Food Pantry providing food to those in need.,"Residents of zip codes 81226, 81212, 81215, 81221, 81223, 81232, 81240, 81244 Area Served:  Zip Codes: 81226, 81212, 81215, 81221, 81223, 81232, 81240, 81244","Tuesday, 9 a.m. - 11:45 a.m.",(719) 275-2808,No Website Listed,38.4466521,-105.1918726
Food Pantry - First United Methodist Church Canon City,CARE AND SHARE - PUEBLO DISTRIBUTION CENTER,801 Main St,Ca単on City,CO,81212,FREMONT COUNTY,Food Pantry providing food to those in need.,Residents of Fremont County by appointment only Area Served: Fremont County,"Hours vary, see Service for specified Hours",(719) 275-0681,No Website Listed,38.442525,-105.236751
Food Pantry - Pantry of Fremont,CARE AND SHARE - PUEBLO DISTRIBUTION CENTER,614 Yale Pl,Ca単on City,CO,81212,FREMONT COUNTY,Food Pantry providing food to those in need.,Residents of Fremont County Area Served: Fremont County,"Hours vary, see Service for specified Hours",(719) 458-9252,No Website Listed,38.4560279,-105.232285
Food Program,RURAL COMMUNITIES RESOURCE CENTER,252 W 1st St,Akron,CO,80720,WASHINGTON COUNTY,Offers emergency food assistance to individuals and families including:Perishable foods Non-perishable food Personal care items,"Residents of the service area Area Served:  Washington, Yuma counties","Monday - Thursday, 9 a.m. - 5 p.m.; Friday, 9 a.m...",(970) 848-3867 (Yuma),http://rcrcenter.org/,40.1590193,-103.2152557
Mobile Food Pantry,COMMUNITY FOOD SHARE,1400 S Collyer St,Longmont,CO,80501,BOULDER COUNTY,"Operates a mobile food pantry at rotating locations, offering: Fresh produce Dairy Non-perishable pantry items","Residents of the service area Area Served: Boulder, Broomfield counties","2nd, 4th Thursday, 1 p.m. - 2:15 p.m.",(303) 652-3663,http://communityfoodshare.org/get-food/services-we-provide/mobile-pantries/,40.1405709,-105.0934647
Mobile Food Pantry,COMMUNITY FOOD SHARE,950 Lashley St,Longmont,CO,80504,BOULDER COUNTY,"Operates a mobile food pantry at rotating locations, offering: Fresh produce Dairy Non-perishable pantry items","Residents of the service area Area Served:  Boulder, Broomfield counties","1st, 3rd Thursday, 10 a.m. - 12 p.m.",(303) 652-3663,http://communityfoodshare.org/get-food/services-we-provide/mobile-pantries/,40.174986,-105.0872787
Mobile Food Pantry,COMMUNITY FOOD SHARE,1500 S Hover St,Longmont,CO,80501,BOULDER COUNTY,"Operates a mobile food pantry at rotating locations, offering: Fresh produce Dairy Non-perishable pantry items","Residents of the service area Area Served: Boulder, Broomfield counties","1st, 3rd Tuesday, 12 p.m. - 1:30 p.m.",(303) 652-3663,http://communityfoodshare.org/get-food/services-we-provide/mobile-pantries/,40.138056,-105.130777
Food Assistance,ADAMS COUNTY FOOD DISTRIBUTION,7111 E 56th Ave,Commerce City,CO,80022,ADAMS COUNTY,Provides weekly food assistance to Colorado residents.,No restrictions applied Area Served: Statewide,"Wednesday - Friday, 10 a.m. - 1 p.m.",(720) 878-3563,http://adamscountyfoodbank.org,39.7989309,-104.9054879
Emergency Food,COMMUNITY TABLE,8555 W 57th Ave,Arvada,CO,80002,JEFFERSON COUNTY,Provides emergency food to individuals and families. Each client selects a supply of food based on household size. Families and individuals may use this program when needed...,"No restrictions applied Area Served: Adams, Boulder, Denver, Gilpin, Jefferson counties","Tuesday, Friday, 12 p.m. - 3:45 p.m.; Wednesday, ...",(303) 424-6685,http://cotable.org,39.800294,-105.0928581
Food Boxes & TEFAP Site,AURORA INTERFAITH COMMUNITY SERVICES,1553 Clinton St,Aurora,CO,80010,ADAMS COUNTY,Provides emergency food boxes for individuals and families in Aurora. Full food boxes available to all clients who meet standard requirements once every 30 days...,"Residents of the service area Area Served: City of Aurora, Denver","Monday - Thursday, 9:30 a.m. - 12:30 p.m.",(303) 360-0260,http://aurorainterfaithcommunityservices.org,39.7412088,-104.8779193
Food Bank,BENNETT COMMUNITY FOOD BANK,1100 E Colfax Ave,Bennett,CO,80102,ADAMS COUNTY,"Offers a monthly food bank and emergency food boxes. Also offers limited clothing and toiletries, as available.","Residents of the service area aged 60 and older Area Served:  Towns of Watkins, Bennett, Strasburg, Byers, Deer Trail, Ag...","1st, 3rd Saturday, 8 a.m. - 10 a.m. (Food Bank)",(303) 549-2589,No Website Listed,39.7547395,-104.4428716
Food Pantry,HELP & HOPE CENTER,1638 Park St,Castle Rock,CO,80109,DOUGLAS COUNTY,Provides emergency food that is enough for 3 meals a day for each family member for 5-7 days. Clients may request food once every 30 days...,"Residents of the service area Area Served: Douglas, Elbert counties","Monday - Friday, 9 a.m. - 4:30 p.m.",(303) 688-1114,http://helpandhopecenter.org/food-pantry,39.3854044,-104.8682504
Food Pantry,CHRISTIAN ACTION GUILD,1401 Ford St,Golden,CO,80401,JEFFERSON COUNTY,"Provides a full service food pantry, which may include: Fresh dairy Meat Fruits and vegetables Breads and pastries Canned and dry goods Clients may request food once a week for a full pantry visit...","Individuals and families residing in the service area Area Served: Zip Codes Served:  80401, 80403","Tuesday - Friday, 10 a.m. - 4 p.m. (Thrift Store ...",(303) 279-5674,http://goldencag.org,39.7548758,-105.2172251
Food Pantry,COMMUNITY MINISTRY,1755 S Zuni St,Denver,CO,80219,DENVER COUNTY,Provides emergency food for families and individuals in need.,No restrictions applied Area Served: City of Denver,"Monday, Thursday, 10 a.m. - 1 p.m.; Tuesday, 1 p....",(303) 935-3428,http://comministry-denver.org,39.6851808,-105.0160784
Food Pantry,EVERGREEN CHRISTIAN OUTREACH,27888 Meadow Dr,Evergreen,CO,80439,JEFFERSON COUNTY,Offers a self-choice food pantry to individuals in need. Also distributes The Emergency Food Assistance Program (TEFAP).,No restrictions applied Area Served: Statewide,"Monday, 10 a.m. - 6 p.m.; Tuesday - Thursday, 10 ...",(303) 670-1796,http://evergreenchristianoutreach.org,39.6367671,-105.316183
Food Pantry,BROOMFIELD FISH,6 Garden Center,Broomfield,CO,80020,BROOMFIELD COUNTY,Provides food assistance twice a month to families in need through a self-shop marketplace.,Broomfield County families whose household income is at or below 200% of the federal poverty guidelines Area Served: Bro...,"Monday - Friday, 9 a.m. - 5 p.m.",(303) 465-1600,http://broomaeldash.org,39.9233237,-105.0876702
Food Pantry,GOOD SHEPHERD PRESBYTERIAN CHURCH,10785 Melody Dr,Northglenn,CO,80234,ADAMS COUNTY,Provides a community food bank. Individuals may visit one time per month.,"No restrictions applied Area Served:  Adams, Arapahoe, Broomfield, Denver, Douglas, Jefferson counties","Hours:Tuesday - Friday, 10 a.m. - 4 p.m. (Office hours)",(720) 465-9946,http://thorntonco.gov/Pages/default.aspx,39.8918582,-104.9931389
Food Pantry,GREATER PARK HILL COMMUNITY,2823 Fairfax St,Denver,CO,80207,DENVER COUNTY,Offers a food pantry for persons living in the service area. Clients may receive food up to 24 times per calendar year.,"Residents of the service area Area Served:  Zip Codes Served:  80207, 80216, 80220","Monday, Wednesday, 10 a.m. - 1 p.m.",(303) 388-0918,http://greaterparkhillcommunity.org,39.7570034,-104.9284063
Food Assistance,IMMACULATE HEART OF MARY CATHOLIC CHURCH,11426 Pearl St,Northglenn,CO,80233,ADAMS COUNTY,"Provides hunger relief through:Monthly food baskets - Comprised of donated food and TEFAP commodities Weekly bread line- Client choice and comprised primarily of perishable food, which may include: Breads Sweets Frozen prepared foods Dairy products Produc...",Residents of the service area (Monthly Food Baskets); No restrictions applied (Bread Line) Area Served:  Statewide (Bread...,"Monday, Wednesday, Friday, 9 a.m. - 11:30 a.m.",(303) 452-2041,http://ihmco.org/ministries/outreach/foodbank/,39.9035722,-104.9789346
Food Pantry,BIENVENIDOS FOOD BANK,3810 N Pecos St,Denver,CO,80211,DENVER COUNTY,Distributes fresh and nonperishable food items.Also provides:Diapers Pet food SNAP assistance,Must be in need of adequate food and one of the following:Low-income seniors Low-income individuals or families Those out...,"1st, 2nd, 4th Thursday, 10 a.m. - 12 p.m., 3:30 p...",(303) 433-6328,http://bienvenidosfoodbank.org,39.7623504,-105.0064418
Food Pantry,SERVICIOS DE LA RAZA,3131 W 14th Ave,Denver,CO,80204,DENVER COUNTY,Offers emergency food items and pet food.,"Individuals and families that reside in the service area Area Served:  Adams, Denver, Jefferson counties","Monday - Friday, 8 a.m. - 5 p.m. (Administration ...",(303) 458-5851,http://serviciosdelaraza.org/services/essential-services/,39.7388479,-105.0272106
Food Bank,SISTER CARMEN COMMUNITY CENTER,655 Aspen Ridge Dr,Lafayette,CO,80026,BOULDER COUNTY,"Offers food assistance up to three times per month or more often in unusual circumstances. Participants choose their own items using a shopping cart, and the exact amount of food provided depends on household size...","Residents of the service area Area Served: Cities of Lafayette, Louisville, Superior, Erie","Monday - Friday, 9 a.m. - 12 p.m., 1 p.m. - 5 p.m...",(303) 665-4342,http://sistercarmen.org,40.0032157,-105.1064953
Food Pantry,THORNTON COMMUNITY FOOD BANK,8990 York St,Denver,CO,80229,ADAMS COUNTY,"Offers a 5-day supply of food for residents living in the service area. Residents may visit once a month, every month for USDA commodities...","Residents living within the service area Area Served:  Cities of Federal Heights, Northglenn, Thornton, Westminster","Monday, Wednesday, 11:30 a.m. - 3 p.m.",(303) 287-7268,No Website Listed,39.7876904,-104.9592562
Food Pantry,GRACEPOINT COMMUNITY CHURCH,90 E Orchard Rd,Centennial,CO,80121,ARAPAHOE COUNTY,Provides a community food bank to individuals in need.,No restrictions applied Area Served: Statewide,"1st, 3rd Friday, 4 p.m. - 5:15 p.m. (Food Pantry ...",(303) 798-6387,http://gracepointcc.org/missions/food-bank/,39.6095079,-104.9872532
Food Pantry,VOLUNTEERS OF AMERICA COLORADO,2877 Lawrence St,Denver,CO,80205,DENVER COUNTY,Offers emergency food boxes once per month for families who have a home.,Individuals must reside in the service area Area Served:  Statewide,"Monday - Friday, 8 a.m. - 5 p.m. (Administrative ...",(303) 295-2165 (Mission),http://voacolorado.org/gethelp-denvermetro-foodnutrition-themission,39.7606775,-104.9813693
Food Pantry,MERCY'S GATE,4360 Montebello Dr Suite 300,Colorado Springs,CO,80918,EL PASO COUNTY,Offers a 3-day supply of emergency food to families and individuals in need.,Residents of El Paso County aged 18 and older Area Served: El Paso County,"Monday - Friday, 8:30 a.m. - 6 p.m.",(719) 277-7470,http://mercysgatecs.org/accessing-services/food-pantry-2,38.8952189,-104.7561174
Food Pantry,DIVINE REDEEMER CATHOLIC CHURCH,927 N Logan Ave,Colorado Springs,CO,80909,EL PASO COUNTY,Provides a food pantry to those in need. This service is not zip code restricted.,No restrictions applied Area Served:  El Paso County,"2nd, 4th Monday, 11 a.m. - 1 p.m.",(719) 633-5559,http://divineredeemer.net,38.8461585,-104.7984524
Food Pantry,LITTLE CHAPEL OF THE HILLS,69 Co Rd 5,Divide,CO,80814,TELLER COUNTY,Provides a food pantry to those in need.,"No restrictions applied Area Served: Park, Teller counties","2nd, 4th Monday, 2 p.m. - 5 p.m.",(719) 322-7610,http://littlechapelfoodpantry.org,38.944185,-105.157657
Food Pantry,TRI-LAKES CARES,235 N Jefferson St,Monument,CO,80132,EL PASO COUNTY,Provides a food pantry. Food can be picked up once a day per household.,Individuals living in the service area Area Served: El Paso County,"Monday - Friday, 9 a.m. - 4 p.m.",(719) 481-4864,http://tri-lakescares.org,39.0921229,-104.8713442
Grocery Delivery & Pick-Up for Seniors,COMMUNITY FOOD SHARE,650 S Taylor Ave,Louisville,CO,80027,BOULDER COUNTY,Offers groceries twice a month to low-income seniors. Home-bound deliveries are available for clients who qualify.,"Seniors aged 60 or older residing in the service area Area Served: Boulder, Broomfield counties","Wednesday, Friday, 9 a.m. - 3 p.m.; Thursday, 12 ...",(303) 652-3663,http://communityfoodshare.org,39.9597454,-105.1195503
General Assistance,FRIENDS OF SAINT ANDREW,1525 Dallas St,Aurora,CO,80010,ADAMS COUNTY,Provides:Food baskets Packed lunches to-go Personal grooming items Information and referrals Mailservices,Individuals must be resident of Aurora and temporarily living with family/friends Area Served:  City of Aurora,"Monday - Friday, 10:15 a.m. - 12:30 p.m. (Packed ...",(303) 364-2329,No Website Listed,39.7407432,-104.8767468
Food Pantry,LOAVES AND FISHES,545 CO-103,Idaho Springs,CO,80452,CLEAR CREEK COUNTY,Provides a food pantry with a selection of:Fresh produce Meat Dairy Dry goods Lunch is also served on days when the food bank is open.,"No restrictions applied Area Served: Clear Creek, Gilpin counties","Thursday, 11 a.m. - 4 p.m., Friday, 12 p.m. - 6 p...",(303) 567-4450,http://loavesandashesco.net,39.7367501,-105.5246371
Food Pantry,DILLON COMMUNITY CHURCH,371 La Bonte St,Dillon,CO,80435,SUMMIT COUNTY,Provides food for those in need.,Must be residents of the service area. Area Served: Summit County,"Monday, 4:30 p.m. - 6 p.m., Wednesday, 4:30 p.m. ...",(970) 468-2461,http://dillonchurch.org/resources#foodbank,39.6308147,-106.0437011
Food Bank Network,LA PUENTE,513 6th Ave,Alamosa,CO,81101,ALAMOSA COUNTY,Provides a food pantry to those in need. This service is for those living in Alamosa County.,No restrictions applied Area Served: Alamosa County,"Monday - Friday, 12 p.m. - 4 p.m.",(719) 589-4567,http://lapuentehome.org,37.634134,-105.7553062
Food Pantry,GROWING HOME,3489 W 72nd Ave 112,Westminster,CO,80030,ADAMS COUNTY,Provides food for individuals and families twice a month. Items vary weekly but may include: Fresh fruits and vegetables Meat and protein Bread Milk Eggs Diapers,No restrictions applied Area Served: Statewide,"Monday - Friday, 9 a.m. - 5 p.m.; Saturday, 9:30 ...",(720) 407-1977,http://growinghome.org/food-pantry-updates/,39.827358,-105.031151
Daytime Emergency Shelter for Seniors,SENIOR SUPPORT SERVICES,846 E 18th Ave,Denver,CO,80218,DENVER COUNTY,"Provides: Meals, as available Telephone Mail service Computer access Transportation assistance Storage for personal items Television room Library Hygiene items",Individuals aged 60 and older Area Served:  Denver County,"Monday - Friday, 7 a.m. - 7 p.m.; Sunday, 10 a.m....",(303) 832-1622,http://seniorsupportservices.org,39.7447102,-104.9766091
Food Market,INTEGRATED FAMILY COMMUNITY SERVICES,3370 S Irving St,Englewood,CO,80110,ARAPAHOE COUNTY,Provides a no-cost grocery program that is available once a month to eligible participants.,Individuals whose income is at or below 200% of the Federal Poverty Level Area Served:  Statewide,"Hours:Monday, Tuesday, Thursday, Friday, 8:30 a.m. - 11...",(303) 789-0501,http://ifcs.org,39.634771,-105.0300469
Food Pantry,PARKER TASK FORCE FOR HUMAN SERVICES,19105 Longs Way,Parker,CO,80134,DOUGLAS COUNTY,Provides a food pantry for those in need.,"Residents of the service area Area Served:  Cities of Elizabeth, Franktown, Parker","Tuesday, Wednesday, Friday, Saturday, 9 a.m. - 1 ...",(303) 841-3460,http://parkertaskforce.org,39.525137,-104.7676353
Food Pantry,NORTHGLENN CHRISTIAN CHURCH,1800 E 105th Pl,Northglenn,CO,80233,ADAMS COUNTY,Offers a food pantry twice a week. Individuals may access the food pantry once every 30 days.,Residents of the service area Area Served:  Adams County,"Tuesday, Thursday, 10 a.m. - 11:45 a.m.",(303) 452-3787,http://northglenn.cc,39.888138,-104.964729
Emergency Food Boxes,WELD FOOD BANK,1108 H St,Greeley,CO,80631,WELD COUNTY,"Provides a box of basic food staples to qualified families or individuals in crisis. Individuals can receive a food box on an emergency basis, not more than once per week...",Individuals and families who reside in Weld County and are at or below 200% of the Federal Poverty Level Area Served:  Weld county,Hours Vary,(970) 356-2199,http://weldfoodbank.org/emergency-food-program/,40.4437132,-104.6987994
Public Health Department,MINERAL COUNTY,802 Rio Grande Ave,Creede,CO,81130,MINERAL COUNTY,"Provides a variety of services for the community, including: Communicable disease control Health education Immunizations Disaster preparedness Health care for children with special needs Family planning and health services Public health planning Food pantry for individuals in nee...",No restrictions applied Area Served:  Mineral County,"Monday - Friday, 8 a.m. - 4 p.m.",(719) 658-2416,http://mineralcounty.colorado.gov/departments/public-health,37.8469816,-106.9266408
Food Pantry,MANNA HOUSE,115 East Main Street Suite 4,Florence,CO,81126,FREMONT COUNTY,Food Pantry providing food to those in need.,"Residents of Eastern Fremont County Area Served: Eastern Fremont County, Florence","Hours:Monday, Wednesday, Friday, 10 a.m. - 1 p.m. (Food...",(719) 784-1955,https://forencemannahouse.org,38.3899568,-105.1174168
Food Pantry,LA JUNTA ASSOCIATED CHARITIES,517 Colorado Ave,La Junta,CO,81050,OTERO COUNTY,"Emergency food pantry for La Junta, Swink, and Cheraw residents.","Residents of Swink, La Junta, or Cheraw Area Served:  Cities of Cheraw, Swink, and La Junta","Monday, Wednesday and Friday, 1:00 p.m. - 2:45 p....",(719) 384-4451,No Website Listed,37.9834932,-103.5429592
Food Pantry - Cooperative Care,PUEBLO COOPERATIVE CARE CENTER,326 W 8th St,Pueblo,CO,81003,PUEBLO COUNTY,Provides a food pantry to residents of Pueblo County. Individuals can pick up food one time per month.,Low income individuals or families who reside in Pueblo County Area Served:  Pueblo County,"Monday - Thursday, 9 a.m. - 1 p.m.",(719) 543-7484,https://www.cooperativecare.org,38.2742368,-104.6106224
Food Pantry,OUTREACH UNITED RESOURCE CENTER,220 Collyer St,Longmont,CO,80501,BOULDER COUNTY,"Offers a shopping experience for households in the St. Vrain Valley through the community market. Also offers baby supplies (when available), including: Baby formula Baby wipes Diapers","Individuals must reside in the St. Vrain Valley School District boundary area Area Served:  Zip codes Served:  80501, 8050...","Monday - Friday, 8 a.m. - 5 p.m.",(303) 772-5529,http://ourcenter.org,40.163139,-105.0977363
Commodities and Food Assistance,FOOD BANK FOR LARIMER COUNTY,2600 N Lincoln Ave,Loveland,CO,80538,LARIMER COUNTY,Provides a client choice food pantry for individuals in need. Also distributes the Commodities Supplemental Food Program (CSFP) to eligible seniors and The Emergency Food Assistance Program (TFAP)...,Low-income residents of Larimer County Area Served: Larimer County,"Tuesday, Thursday - Saturday, 10 a.m. - 3 p.m.; W...",(970) 493-4477,http://foodbanklarimer.org/our-programs,40.4193724,-105.0711042
Food Distribution,WELLINGTON FOOD PANTRY,3161 County Rd 62E Ste E Bldg 62,Wellington,CO,80549,LARIMER COUNTY,Provides food boxes to low-income individuals.,"Residents of the service area Area Served: Cities of Wellington, Fort Collins Residents North of Vine St","1st, 3rd Thursday, 3 p.m. - 4:30 p.m.",(970) 776-6763,No Website Listed,40.703873,-105.017868
Clothing and Food Assistance,SALVATION ARMY FORT COLLINS,3901 S Mason St,Fort Collins,CO,80525,LARIMER COUNTY,"Provides food boxes and clothing for individuals in need. When available, also provides: Hygiene items Diapers and wipes Pet food Period kits","Low-income individuals and families in need Area Served: Cities of Fort Collins, Wellington, Laporte, Timnath, Bellvue, ...","Monday, Wednesday, Thursday, 10 a.m. - 12 p.m., 1...",(970) 207-4472 Ext 201,http://fortcollins.salvationarmy.org/fort_collins_corps/overcome-poverty,40.533596,-105.0800634
Emergency Assistance,HOUSE OF NEIGHBORLY SERVICE,1511 E 11th St,Loveland,CO,80537,LARIMER COUNTY,"Provides basic needs assistance, such as:Monthly food baskets (based on family size)Baby formula and diapers Clothing and household items Prescription assistance Bus tokensGas vouchers for medical or job-related appointments (must be able to confirm...",Individuals must reside in the service area and have a maximum household income of 70% AMI. Area Served:  Cities of Berthoud,"Monday - Wednesday, 9 a.m. - 4 p.m.; Thursday, 9 ...",(970) 667-4939 (Loveland Office),http://honservice.org/programs/crisis-prevention.html,40.4033803,-105.0564413
Food Assistance,LIFTUP OF ROUTT COUNTY,2095 Curve Ct,Steamboat Springs,CO,80487,ROUTT COUNTY,"Provides food assistance, including: Food bank for the general communityThe Commodity Supplemental",Food ProgramThe Emergency Food Assistance Program for low-income household...,Individuals must be residents of Routt County. Additional eligibility requirements may apply. Area Served:  Routt County,"Monday - Friday, 12 p.m. - 5 p.m.",(970) 870-8804,40.4997789,-106.8575036
Food Pantry,HAYDEN CONGREGATIONAL FOOD BANK,202 E Jefferson Ave,Hayden,CO,81639,ROUTT COUNTY,Provides food to individuals and families who do not have enough food supplies to last until their next paycheck or until SNAP benefits are re-issued...,Families or individuals in need of food residing in Hayden Area Served:  City of Hayden,"Monday - Sunday, 9 a.m. - 5 p.m. (By Appointment ...",(970) 276-3510,http://haydencongoice.wixsite.com/hccucc,40.4965193,-107.2524285
Food Pantry,INTERFAITH FOOD BANK,517 Breeze St,Craig,CO,81625,MOFFAT COUNTY,Provides one week of food up to three times per year for eligible individuals. Offers holiday baskets in December.,Residents of the service area Area Served: Moffat County,"Monday, Wednesday, Friday, 10:30 a.m. - 12 p.m.",(970) 824-7355,No Website Listed,40.5146241,-107.548402
Food Pantry - Salvation Army,SALVATION ARMY - PUEBLO COUNTY,401 S Prairie Ave,Pueblo,CO,81005,PUEBLO COUNTY,Food Pantry distribution on site to Pueblo residents. Service is a drive-through.,Low income individuals in need Area Served:  Pueblo County,Hours Vary,(719) 543-3656,https://pueblo.salvationarmy.org,38.260216,-104.644065
Clothing and Food Bank,DORCAS CIRCLE,913 Main St,Walsenburg,CO,81089,HUERFANO COUNTY,This is a service for both adults and children in need of clothing. No fees are charged but some guidelines must be followed. The food bank provides food for both residential and transient population of Huerfano County...,"Proof of residency, Must be a citizen of U.S. donations accepted Area Served:  Huerfano County","Tuesday, Friday, 10 a.m. - 12 p.m.; 12:30 p.m. - ...",(719) 738-2291,https://www.dorcascircle.org,37.6205692,-104.7793389
Food Pantry,CARING & SHARING SALIDA,220 W 4th St,Salida,CO,81201,CHAFFEE COUNTY,Provides a food pantry to those in need.,No restrictions applied Area Served:  Chaffee County,"Monday - Saturday, 10:30 a.m. - 1:30 p.m.",(719) 539-4849,http://salidacaringsharing.org,38.5347855,-105.9960964
Food Pantry,FIRST PRESBYTERIAN CHURCH OF SALIDA,7 Poncha Blvd,Salida,CO,81201,CHAFFEE COUNTY,Provides a food pantry to those in need.,No restrictions applied Area Served:  Chaffee County,"Monday - Thursday, 9 a.m. - 5 p.m.",(719) 539-6422,http://salidapresbyterian.org,38.5364245,-105.996476
Food Pantry,TIMES OF REFRESHING CHURCH,123 W Ohio Ave,Fountain,CO,80817,EL PASO COUNTY,Provides a food pantry to those in need.,No restrictions applied Area Served: El Paso County,"2nd, 4th Saturday, 1 p.m. - 2:30 p.m.",(719) 382-0508,No Website Listed,38.6831943,-104.7010782
Food Pantry,SALVATION ARMY COLORADO SPRINGS CORPS,908 Yuma St,Colorado Springs,CO,80909,EL PASO COUNTY,Provides a food pantry to those in need.,No restrictions applied Area Served: El Paso County,"Monday - Friday, 9 a.m. - 4 p.m.",(719) 636-3891,http://coloradosprings.salvationarmy.org,38.845428,-104.7786897
Food Pantry,PALACE OF PEACE CHURCH,1150 Aeroplaza Dr,Colorado Springs,CO,80916,EL PASO COUNTY,Provides a food pantry to those in need.,No restrictions applied Area Served: El Paso County,"2nd, 4th Sunday, 1 p.m. - 2 p.m.",(719) 591-2094,http://placeofpeacechurch.com/,38.8163033,-104.7323427
Food Bank,SALVATION ARMY DENVER,1080 Birch St,Broomfield,CO,80020,BROOMFIELD COUNTY,Offers a food bank for individuals living in the service area.,"Residents of the service area Area Served: Boulder, Broomfield counties",Hours Vary,(303) 635-3018 (Food Pantry),http://denver.salvationarmy.org/,39.9314618,-105.0584944
Food Pantry,TRUE SPIRIT BAPTIST CHURCH,5120 Astrozon Blvd,Colorado Springs,CO,80916,EL PASO COUNTY,Provides a food pantry to those in need. This service is not zip code restricted.,No restrictions applied Area Served: El Paso County,"Friday, 11 a.m. - 2 p.m.",(719) 575-9287,http://truespiritbaptistchurch.com,38.7997178,-104.7338407
Food Pantry,JEWISH FAMILY SERVICE OF COLORADO,3201 S Tamarac Dr,Denver,CO,80231,DENVER COUNTY,Provides a pantry and food boxes. Clients may visit the pantry twice a month.,Must fall within the income guideline:Household Size Monthly Gross Income 60% of State Median Income (Maximum monthly ...,"Monday - Thursday, 8:15 a.m. - 4:45 p.m.; Friday,...",(833) 340-1096,https://newclient.link2feed.com/,39.6569728,-104.9000373
Food Bank,HOPE STARTS HERE FOOD BANK,19401 E Chenango Dr,Centennial,CO,80015,ARAPAHOE COUNTY,Provides a bi-monthly drive-up community food pantry.,No restrictions applied Area Served: Statewide,"Saturday, Hours Vary",(303) 328-3464,http://hshfoodbank.org/,39.6279548,-104.7617029
Food Pantry,ORCHARD MESA BAPTIST CHURCH,2748 B 1/2 Rd,Grand Junction,CO,81503,MESA COUNTY,Provides a food box to those in need once a month and up to 3 times per calendar year. Additional assistance can be granted on case by case basis by the food pantry director...,No restrictions applied Area Served: Mesa County,"Monday - Saturday, 10 a.m. - 5 p.m.",(970) 242-2355,http://ombcgj.com/,39.0415079,-108.5435434
Food Pantry,VAIL VALLEY SALVATION ARMY,322 E Beaver Creek Blvd,Avon,CO,81620,EAGLE COUNTY,"Provides a food box to individuals, seniors and families in need. - Year-round, non-perishable food baskets, diapers, and some toiletries at the main Avon food pantry...",No restrictions Area Served: Eagle County,"Monday - Friday, 10:00 am - 4:00 pm",(970) 748-0704,http://salvationarmyvail.org,39.6275596,-106.5036932
Food Pantry,MT. CALVARY LUTHERAN CHURCH,1318 N Circle Dr,Colorado Springs,CO,80909,EL PASO COUNTY,Provides a food pantry to those in need.,No restrictions applied. Area Served:  El Paso County,"Wednesday, 10 a.m. - 1 p.m.",(719) 634-1053,No Website Listed,38.8513738,-104.7762245
Food and Clothing Assistance,SAINT JOHN'S LUTHERAN CHURCH,305 E Elizabeth St,Fort Collins,CO,80524,LARIMER COUNTY,"Offers food and clothing assistance, including: Perishable food (as available) Non-perishable food to individuals Cleaning and hygiene products Small household items are occasionally available, depending upon donation...",Individuals that have a financial need or hardship Area Served:  Larimer County,"Tuesday, 9 a.m. - 11 a.m.",(970) 482-5316,http://stjohnsfc.org,40.5739532,-105.0735276
Food Pantry,SERVE 6.8 RESOURCE CENTER,1601 W Drake Rd,Fort Collins,CO,80526,LARIMER COUNTY,Provides food for those in need. Select locations also provide: Hygiene items Cleaning supplies Pet food,"No restrictions applied Area Served: Larimer, Weld counties","Friday, 1 p.m. - 4 p.m.",(970) 449-5401,http://serve68.org/resource-center/,40.5522443,-105.1063166
Food and Clothing Pantry,METROPOLITAN COMMUNITY CHURCH OF THE ROCKIES,980 Clarkson St,Denver,CO,80218,DENVER COUNTY,Provides a food and clothes pantry to those in need. Also serves as a distribution location for The Emergency Food Assistance Program (TEFAP)...,"No restrictions applied Area Served: Adams, Arapahoe, Broomfield, Denver, Douglas, Jefferson counties","2nd, 3rd, 4th Monday, 3 p.m. - 5 p.m. (Food Pantry",(303) 860-1819,http://facebook.com/groups/MCCRFoodPantry,39.7317733,-104.977256
Food Pantry,MOUNTAIN RESOURCE CENTER,11030 Kitty Dr,Conifer,CO,80433,JEFFERSON COUNTY,Provides a food pantry for individuals and families in need.,No restrictions applied Area Served: Jefferson County,"Monday - Thursday, 9 a.m. - 5 p.m.",(303) 838-7552,http://mrcco.org,39.5173658,-105.3096357
Food Pantry and TEFAP/Commodities,SHARING MINISTRIES FOOD BANK,49 N 1st St,Montrose,CO,81401,MONTROSE COUNTY,Provides food boxes once a month to in need.Also acts as a pick-up site for TEFAP and Commodities (Evergreen Boxes).,"No restrictions applied Area Served: Delta, Montrose, Ouray, San Miguel counties","Monday - Friday, 9:30 am -12:30 pm",(970) 240-8385,http://sharingministries.com,38.4794827,-107.8785885
Food Pantry,SOUTHEAST BAPTIST CHURCH,4393 Airport Rd,Colorado Springs,CO,80916,EL PASO COUNTY,Provides a food pantry to those in need.,No restriction applied Area Served:  El Paso County,"Saturday, 8 a.m. - 11 a.m.",(719) 380-7060,http://southeastbaptistchurchcs.com,38.8252214,-104.7471192
Senior Food Pantry,SILVER KEY SENIOR SERVICES,1605 S Murray Blvd,Colorado Springs,CO,80916,EL PASO COUNTY,Provides food to seniors in need.,Individuals aged 60 and older who meet income eligibility requirements Area Served:  El Paso County,"Monday - Friday, 8 a.m. - 5 p.m.",(719) 884-2300,http://silverkey.org/services/senior-assistance/food-pantry/,38.8099777,-104.7490379
Food Pantry - Valley Community Church,CARE AND SHARE - PUEBLO DISTRIBUTION CENTER,4523 Mercantile St,Colorado City,CO,81019,PUEBLO COUNTY,MOBILE PANTRY - Care and Share food pantry providing food to those in need,Residents of Pueblo County Area Served:  Pueblo County,"Hours vary, see Service for specified Hours",(719) 676-3830,No Website Listed,37.9476778,-104.8311935
Food Pantry,HOLY CROSS LUTHERAN CHURCH,4125 Constitution Ave,Colorado Springs,CO,80909,EL PASO COUNTY,Offers a food pantry for those in need.,No restrictions applied Area Served: El Paso County,"Monday - Friday, 9 a.m. - 3 p.m.",(719) 596-0661,http://holycrosscs.org,38.8609108,-104.7488155
Food Pantry,SALVATION ARMY FOUNTAIN VALLEY CORPS,208 Cunningham Dr,Colorado Springs,CO,80911,EL PASO COUNTY,Provides a food pantry for individuals in need.,No restrictions applied Area Served: El Paso County,"Monday, Wednesday, Friday, 9 a.m. - 12 p.m., 1 p....",(719) 382-1182,http://fountainvalley.salvationarmy.org,38.764623,-104.74479
Food Pantry,CLIFTON CHRISTIAN CHURCH,3241 F 1/4 Rd,Clifton,CO,81520,MESA COUNTY,Provides a food box to those in the community. Clients can receive food once every 30 days.,No restrictions applied Area Served: Mesa County,"Wednesday, 9 a.m. - 11:30 a.m., 12:30 p.m. - 3 p....",(970) 434-7392,http://cliftonchristianchurch.com,39.0945871,-108.4512434
Food Pantry,FRESH START CENTER,7375 Adventure Way,Colorado Springs,CO,80923,EL PASO COUNTY,Provides a food pantry to those in need.,"Residents of the service area Area Served:  Zip Codes Served:  80106, 80132, 80808, 80818,","80821, 80828, 80830, 80831, 808...","Tuesday, Thursday, 10 a.m. - 4 p.m.; 1st Wednesda...",(719) 495-3123,38.9408625,-104.6921985
Food and Clothing Assistance,FORT LUPTON FOOD AND CLOTHING BANK,421 Denver Ave,Fort Lupton,CO,80621,WELD COUNTY,Offers food boxes and quality clothing to Colorado residents and individuals experiencing homelessness.,Must be a resident of the service area. Children aged 16 and younger will need to be accompanied by someone aged 18 and...,"Monday - Friday, 8:30 a.m. - 4:30 p.m.",(303) 857-1096,http://FLFCB.org,40.0838691,-104.8107966
Food Pantry - Luv In Action,LUV IN ACTION,1100 Spruce St,Pueblo,CO,81004,PUEBLO COUNTY,Provides food to those in need by appointment only,People in need of food or who are waiting to receive SNAP benefits Area Served: Pueblo County,"Thursday, 10 a.m. - 12 p.m. (By Appointment Only)...",(719) 542-0549,No Website Listed,38.247727,-104.617225
Food Bank,COMMUNITY UNITED METHODIST CHURCH,195 S. Main Street,Keenesburg,CO,80643,WELD COUNTY,Provides a food bank where individuals and families in need can receive food once a month.,"Must be a resident of the service area Area Served: Towns of Hudson, Keenesburg, Roggen, Prospect Valley",Hours Vary,(303) 732-4319,http://cumckeenesburg.org,40.106841,-104.519781
Food Program,RURAL COMMUNITIES RESOURCE CENTER,204 S Main St,Yuma,CO,80759,YUMA COUNTY,Offers emergency food assistance to individuals and families including: Perishable foods Non-perishable food Personal care items,"Residents of the service area Area Served: Washington, Yuma counties","Monday - Thursday, 9 a.m. - 5 p.m.; Friday, 9 a.m...",(970) 848-3867 (Yuma),http://rcrcenter.org/,40.1241729,-102.7238903
Food Pantry,ERIE COMMUNITY FOOD BANK,635 Pierce St,Erie,CO,80516,WELD COUNTY,Offers food to Erie residents that are in need.,Residents of Erie Area Served: Town of Erie,"Thursday, 10 a.m. - 12 p.m., 5:30 p.m. - 7:30 p.m...",(720) 383-4865,http://eriecommunityfoodbank.com,40.050726,-105.0487088
Food Assistance Referrals,BRUSH UNITED METHODIST CHURCH,1701 Edmunds St,Brush,CO,80723,MORGAN COUNTY,Provides food assistance referrals for programs such as Commodity Supplemental Food Program (CSFP) and The Emergency Food Assistance Program (TEFAP) for seniors through Food Bank of the Rockies...,"Individuals in need of food assistance Area Served:  Cities of Brush, Hillrose, Snyder","Thursday, 9 a.m. - 12 p.m. (Office Hours)",(970) 842-2522,No Website Listed,40.256262,-103.63955
Food Pantry,WESTSIDE CARES,2808 W Colorado Ave,Colorado Springs,CO,80904,EL PASO COUNTY,Provides a four-day bag of food for families and individuals in need.,"Residents of the service area Area Served: El Paso County (Zip Codes Served:  80904, 80905,","80906, 80907, 80919, 80829, 8...","Monday - Thursday, 9:30 a.m. - 12:30 p.m.",(719) 389-0759,38.8503956,-104.8672724
Pet Food Pantry,SILVER KEY SENIOR SERVICES,1605 S Murray Blvd,Colorado Springs,CO,80916,EL PASO COUNTY,Provides a pet food pantry for seniors.,Individuals aged 60 years and older Area Served:  El Paso County,"Monday - Friday, 8 a.m. - 5 p.m.",(719) 884-2300,http://silverkey.org,38.8099777,-104.7490379
Food Pantry,VICTORY LIFE CHURCH,2066 US-6 & 50,Fruita,CO,81521,MESA COUNTY,Provides a food box to individuals and families in need. Boxes are limited to once a week per household.,Residents of the service area Area Served: Mesa County,"Monday - Friday, 10 a.m. - 2 p.m. (Administrative...",(970) 858-4852 (tel:(970) 858-4852),http://vlcgv.org,39.12948,-108.682603
Food Pantry,CENTRAL SEVENTH-DAY ADVENTIST CHURCH,1305 N Union Blvd,Colorado Springs,CO,80909,EL PASO COUNTY,Provides a food pantry to those in need.,No restrictions applied Area Served: El Paso County,"Mondays, 10 a.m. - 2:30 p.m.; 1st, 3rd Saturdays,...",(719) 578-5616,http://centralsda.org,38.8507348,-104.7937951
Pet Food Pantry,ANIMAL FRIENDS ALLIANCE,2321 E Mulberry St Suite 1,Fort Collins,CO,80524,LARIMER COUNTY,Provides cat and dog food to pet owners experiencing financial hardships. Clients may only receive pet food assistance once per month...,Individuals must be experiencing a financial hardship and own pets that are spayed or neutered or have plans to spay/ne...,"Monday - Friday, 10 a.m. - 6 p.m.; Saturday, Sund...",(970) 484-8516 Ext 5133,http://savinganimalstoday.org/community-pet-resources/pet-food-assistance/,40.5813184,-105.0555811
Food Pantry,ASPEN MINE CENTER,100 W Bennett Ave,Cripple Creek,CO,80813,TELLER COUNTY,Provides a food pantry to those in need.,Low-income households Area Served: Teller County,"Monday - Friday, 9 a.m. - 4 p.m.",(719) 689-3584 Ext 102,http://aspenminecenter.org,38.7462477,-105.1805116
Online Food Pantry Search Tool,CARE AND SHARE FOOD BANK,2605 Preamble Point,Colorado Springs,CO,80915,EL PASO COUNTY,Provides an online tool to assist community members in finding local food pantries and commodities.,"Must be a resident of the service area Area Served:  Alamosa, Archuleta, Baca, Bent, Chaffee, Cheyenne, Conejos, Costilla...","Monday - Friday, 8 a.m. - 5 p.m. (Office Hours); ...",211,http://careandshare.org/andfood,38.849797,-104.717043
General Assistance,COLFAX COMMUNITY NETWORK,1585 Kingston St,Aurora,CO,80010,ADAMS COUNTY,"Provides:Food, diapers and hygiene productsConnections to housingSupportive counselingReferrals to community resourcesFood bankParenting classesCommunity nightsCase managemen...",No restrictions applied Area Served: Statewide,"Tuesday, Thursday, 10 a.m. - 12 p.m. (Drop-In Hou...",(303) 318-4242,http://milehighbehavioralhealthcare.org,39.7413889,-104.8591667
Food Pantry and Clothes Closet,LOVELAND VINEYARD COMMUNITY CHURCH,900 Josephine Ct,Loveland,CO,80537,LARIMER COUNTY,"Offers items to those in need, including: Clothes Non-perishable food Perishable food, including: Meat Eggs Bread Grocery items Personal hygiene products (as available) Spiritual guidance is also offered but not required to receive services...",No restrictions applied Area Served: Larimer County,"Tuesday - Thursday, 9 a.m. - 12 p.m.",(970) 667-8668,http://lovelandvineyard.org/resources/,40.402358,-105.056393
Food Pantry,HOLYOKE COVENANT METHODIST,230 E Furry St,Holyoke,CO,80734,PHILLIPS COUNTY,Offers a food pantry.,Residents of Holyoke Area Served:  City of Holyoke,"Friday, 3 p.m. - 4 p.m. (Food Pantry Hours)",(970) 854-2433,http://joinmychurch.org/churches/First-United-Methodist-Church-of-Holyoke-Holyoke-Colorado-United-States/106055,40.5834883,-102.3005567
Food Pantry,BIBLE BAPTIST CHURCH OF ERIE,5050 NE County Line Rd #1,Erie,CO,80516,WELD COUNTY,Provides a mobile food pantry.,No restrictions applied Area Served: Statewide,Hours Vary (Building Hours),(303) 828-5109,http://biblebaptisterie.com,40.069364,-105.055466
Mobile Food Pantry,FOOD BANK OF THE ROCKIES,22 S 4th Ave,Brighton,CO,80601,ADAMS COUNTY,Provides food to communities by sending semi-trucks to set locations and distributing food for 1-2 hours.,"No restrictions applied Area Served: Adams, Arapahoe, Delta, Denver, Douglas, Eagle, Elbert, Garfield, Gilpin, Grand, Ja...","2nd Saturday, 9 a.m. (While Supplies Last)",(303) 375-5853,http://foodbankrockies.org,39.9864547,-104.8180321
Food Pantry,COMMUNITY CUPBOARD OF WOODLAND PARK,414 N Hwy 67,Woodland Park,CO,80863,TELLER COUNTY,Provides a food pantry to those in need.,No restrictions applied Area Served: Teller County,"Monday, Wednesday, Friday 9:30 a.m. - 11:30 a.m.",(719) 687-3663,http://wpcommunitycupboard.com,38.997565,-105.062443
Food Pantry,FIRST UNITED METHODIST CHURCH OF PIERCE,429 3rd St,Eaton,CO,80615,WELD COUNTY,Provides a food pantry to the community.,No restrictions applied Area Served:  Weld County,"3rd Saturday, 9 a.m. - 11 a.m.",(970) 834-1475,http://umc.org,40.5288546,-104.7163266
Food Pantry,BIENVENIDOS FOOD BANK,4747 W Colfax Ave,Denver,CO,80204,DENVER COUNTY,Distributes fresh and nonperishable food items.,Must be in need of adequate food and one of the following: Low-income seniors Low-income individuals or familiesThose out...,"3rd Thursday, 10 a.m. - 12 p.m. (January - Octobe...",(303) 433-6328,http://bienvenidosfoodbank.org,39.7404343,-105.0480555
Food Pantry,EASTERN PLAINS COMMUNITY PANTRY,701 4th St,Calhan,CO,80808,EL PASO COUNTY,Provides a food pantry and a mobile food pantry.,"Residents of the service area Area Served: Zip Codes Served:  80808, 80831, 80832, 80833, 80835, 80864, 80909, 80920, 809...","Monday, 9 a.m. - 5 p.m.; Tuesday - Friday, 9 a.m....",(719) 347-3062,http://easternplainscommunitypantry.org,39.037218,-104.2975546
Mobile Food Pantry,FOOD BANK OF THE ROCKIES,6000 Victory Way,Commerce City,CO,80022,ADAMS COUNTY,Provides food to communities by sending semi-trucks to set locations and distributing food for 1 -2 hours.,"No restrictions applied Area Served: Adams, Arapahoe, Delta, Denver, Douglas, Eagle, Elbert, Garfield, Gilpin, Grand, Ja...","1st, 3rd Friday, 9 a.m. (While Supplies Last)",(303) 375-5853,http://foodbankrockies.org,39.8059455,-104.8919219
Food Pantry,THE OLD GALLERY,14863 CO-7,Lyons,CO,80540,BOULDER COUNTY,Offers a food pantry with the following items:Canned foodsDairy productsFresh fruits and,vegetablesBreads and pastriesVariety of dry goodsFrozen mea...,Residents of the service area Area Served:  City of Allenspark,"Monday - Sunday, 9:30 a.m. - 4:30 p.m. (Summer an...",(303) 747-2906,40.2246865,-105.2711003
Food Program for Seniors,LITTLE CHAPEL OF THE HILLS,69 Co Rd 5,Divide,CO,80814,TELLER COUNTY,Provides healthy food staples for seniors through the Commodity Supplemental Food Program (CSFP).,"Individuals aged 60 years or older who meet income eligibility requirements Area Served:  Park, Teller counties","2nd, 4th Monday, 2 p.m. - 5 p.m.",(719) 322-7610,http://littlechapelfoodpantry.org,38.944185,-105.157657
Emergency Assistance,CATHOLIC CHARITIES OF DENVER,11149 E 14th Ave,Aurora,CO,80010,ADAMS COUNTY,Provides the following emergency services: Food Clothing Money management and budgeting skillsJob,search assistanceReferrals to other resource...,"No restrictions applied Area Served:  Zip Codes Served:  80010, 80011, 80012, 80013, 80014, 80015, 80016, 80017, 80018, 80...","Monday, Wednesday, Thursday, 9:30 a.m. - 3 p.m.",(303) 360-9686,39.7385147,-104.857927
Food Pantry,DENVER RESCUE MISSION,5725 E 39th Ave,Denver,CO,80207,DENVER COUNTY,Provides a food pantry on a walk-in basis.,"Low-income individuals and families in need of food assistance Area Served: Adams, Arapahoe, Boulder, Broomfield, Denver...","Monday - Friday, 8:30 a.m. - 5 p.m. (Administrati...",(303) 297-1815,http://denverrescuemission.org/who-we-are/locations/ministry-outreach-center,39.7711399,-104.9210631
Food Pantry,COMMUNITY FOOD SHARE,650 S Taylor Ave,Louisville,CO,80027,BOULDER COUNTY,Offers a food pantry to individuals and families in need on a weekly basis. Emphasizes access to:Fresh produce Grains Milk,"Residents of the service area Area Served: Boulder, Broomfield counties","Wednesday, Friday, 9 a.m. - 3 p.m.; Thursday, 12 ...",(303) 652-3663,http://communityfoodshare.org,39.9597454,-105.1195503
Mobile Food Pantry,NEIGHBOR OUTREACH OF COLORADO,9371 Wigham St,Thornton,CO,80229,ADAMS COUNTY,"Provides a mobile food pantry, offering: Fresh produceCanned goodsBreadMeat",No restrictions applied Area Served: Statewide,"3rd Thursday, 2 p.m. - 4 p.m.",(720) 938-4304,http://neighboroutreach.org,39.8674904,-104.9540712
Food Bank,MOUNTAIN FAMILY CENTER,480 E Agate Ave,Granby,CO,80446,GRAND COUNTY,Provides food for families or individuals in need. Also offers emergency food items outside each location.,Individuals must be Grand County residents. Area Served:  Grand County,"Monday - Thursday, 9 a.m. - 3 p.m.; Friday, 9 a.m...",(970) 557-3186,http://mountainfamilycenter.org,40.0844345,-105.9346741
Food Pantry,LOUISVILLE COMMUNITY FOOD BANK,741 Jefferson Ave,Louisville,CO,80027,BOULDER COUNTY,Offers a food pantry to individuals and families in need. Also provides curbside service.,"No restrictions applied Area Served: Cities of Superior, Louisville","Tuesday, 9 a.m. - 12 p.m.",(303) 808-3660,http://louisvillecommunityfoodbank.org,39.9776097,-105.134954
Food Bank,MEAN STREET MINISTRY,1380 Ammons St,Denver,CO,80232,JEFFERSON COUNTY,Offers a food bank and cafe to individuals in need.,No restrictions applied Area Served: Statewide,"Monday - Thursday, 8:30 a.m. - 12 p.m.",(303) 232-2500,http://meanstreetministry.org,39.6385694,-105.0873123
Counseling Services,SANCTUARY CHURCH,1930 W Colorado Ave,Colorado Springs,CO,80904,EL PASO COUNTY,Provides faith-based and non faith-based counseling for individuals and families.,No restrictions applied Area Served: El Paso County,"Monday - Thursday, 10 a.m. - 2 p.m.",(719) 634-7232,http://thesanctuarywestside.org,38.8429159,-104.8542564
Food Bank,CHURCH IN THE CITY BETH ABRAHAM,1580 N Gaylord St,Denver,CO,80206,DENVER COUNTY,Offers a walk-up food bank for those in need.,No restrictions applied Area Served: Denver County,"Tuesday - Friday, 9 a.m. - 5 p.m.",(303) 322-5733,http://churchinthecity.org,39.741322,-104.960937
Food Pantry and Hot Meal,AGAPE CHRISTIAN CHURCH,2501 California St,Denver,CO,80205,DENVER COUNTY,"Provides services to the community, including:Food pantry Hot meals Clothing and resources, available upon request All services are provided in a sit-down environment...","Must be aged 18 years and older Area Served:  Adams, Arapahoe, Boulder, Denver, Douglas, Elbert, Jefferson counties","Monday - Friday, 9:30 a.m. - 3:30 p.m. (Office Ho...",(303) 296-2454,No Website Listed,39.7539162,-104.9813788
Food Bank,EL CENTRO DE LOS POBRES,214 US-50 BUSINESS,Avondale,CO,81022,PUEBLO COUNTY,"El Centro de los Pobres supports migrant laborers and their families living in and near Avondale, with Clothing Assistance, Emergency Services, Family, Finances, Food Assistance, and Medical Assistance...","Migrant workers and their families Area Served:  Pueblo County, Town of Avondale","Hours:Tuesday, 8 a.m. - 12 p.m.; Thursday, 1 p.m. - 5 p...",(719) 947-3109,No Website Listed,38.236423,-104.347791
Food Pantry,DOVE CREEK CARE AND SHARE FOOD PANTRY,214 HIGHWAY 491,DOVE CREEK,CO,81324,DOLORES COUNTY,Serves supplemental and emergency food for those in need and once-per-month distribution of The Emergency Food Assistance Program (TEFAP) for those who qualify...,"Individuals in the service area needing food assistance. Additional eligibility requirements apply for TEFAP, call for ...","Monday - Friday, 8:00 am - 5:00 pm.",(970) 769-0006,https://dccareandshare.org,37.7617497,-108.8998001
Day Center and Food Pantry,RISING UP,527 State St,Fort Morgan,CO,80701,MORGAN COUNTY,Offers:A self-serve food pantry where individuals can take what is needed/wanted Breakfast and lunch Assistance with job and housing searchesAccess to showers English as a Second Language clas...,Individuals and families experiencing homelessness or food insecurity in the service area Area Served:  Morgan County,"Monday - Thursday, 9 a.m. - 4 p.m. (Day Shelter ...",(970) 370-8880,http://risingupmorgancounty.com,40.2520924,-103.8003196
Pet Food Pantry,PET FOOD PANTRY FOR TELLER COUNTY,69 Co Rd 5,Divide,CO,80814,TELLER COUNTY,Provides pet food for anyone in need.,No restrictions applied Area Served: Teller County,"2nd, 4th Monday, 2 p.m. - 5 p.m.",(719) 244-3969,http://petfoodpantrytc.com,38.944185,-105.157657
Food Pantry,ST MARY PARISH PANTRY,6853 S Prince St,Littleton,CO,80120,ARAPAHOE COUNTY,Offers a self-serve food pantry. Also provides pre-packed emergency food bags at the parish Office when the pantry is closed.,No restrictions applied Area Served: City of Littleton,"Monday, 10 a.m. - 12 p.m.",(303) 798-8506,http://stmarylittleton.org/need-help/st-mary-parish-pantry-food/,39.594431,-105.0175086
Food Assistance,AGAPE LIFE CHURCH,5970 W 60th Ave,Arvada,CO,80003,JEFFERSON COUNTY,Provides a food pantry and hosts a monthly TEFAP (The Emergency Food Assistance Program) food distribution site.,Individuals must meet income requirements and be a Colorado resident Area Served:  Statewide,"Tuesday - Thursday, 9 a.m. - 5 p.m.; Friday, 9 a....",(303) 431-6481,http://agapelife.org/food-outreach/,39.8054671,-105.0622284
Food Assistance Referrals,UNITED WAY OF MORGAN COUNTY,229 Prospect St,Fort Morgan,CO,80701,MORGAN COUNTY,Provides referrals to local food banks and food assistance services within the community.,People in need of emergency food Area Served:  Morgan County,"Monday - Friday, 9 a.m. - 3 p.m. (Administrative ...",(970) 867-2218,http://mcunitedway.org/resources,40.248932,-103.7986141
Food Pantry - Delta Food Pantry,DELTA FOOD PANTRY,628 Meeker St,Delta,CO,81416,DELTA COUNTY,"Delta Food Pantry services residents of Delta County, by providing: Services limited to once every 60 days per individual Food pickup which is located in the back alley of St...",Low-income individuals and families who reside in Delta County Area Served: Delta County,"Monday - Friday, 10:30 am - 11:30 am,4th Tuesday,...",(970) 200-4225,https://deltafoodpantry.org,38.7386965,-108.0689459
Mobile Food Pantry,WELD FOOD BANK,1108 H St,Greeley,CO,80631,WELD COUNTY,Offers mobile food pantries at locations throughout Weld County.,No restrictions applied Area Served: Weld County,Hours Vary,(970) 356-2199,http://weldfoodbank.org/and-food-near-you,40.4437132,-104.6987994
Food Pantry,SECORCARES,17151 Pine Ln,Parker,CO,80134,DOUGLAS COUNTY,Provides a food market to individuals and families.,"Residents of the service area Area Served: Arapahoe, Douglas, Elbert counties","Wednesday, Thursday, 9 a.m. - 4 p.m.; Friday, Sat...",(720) 842-5621,http://secorcares.com,39.5440269,-104.7903099
Food Pantry,OH BE JOYFUL CHURCH,625 Maroon Ave,Crested Butte,CO,81224,GUNNISON COUNTY,Provides a food pantry for those in need.,Residents of the service area. Area Served:  Gunnison County,"Tuesday - Friday, 9 a.m. - 5 p.m.",(970) 349-6237,http://ohbejoyfulchurch.org,38.8708519,-106.9795154
Food Pantry,SURFACE CREEK COMMUNITY SERVICES FOOD BANK,245 W Main St,Cedaredge,CO,81413,DELTA COUNTY,"Provides a food box to individuals, seniors and families in need.","Must be low-income individuals, seniors and families of the service area Area Served:  Cities of Austin, Cedaredge, Ecker...","Thursday, 1 p.m. - 3 p.m., Friday, 10 a.m. - 12 p...",(970) 856-1125,http://facebook.com/Cedaredge-Food-Bank-1599141133732917,38.9006119,-107.9258506
Food Pantry,MEXICAN AMERICAN DEVELOPMENT ASSOCIATION,17 N 6th St,Montrose,CO,81401,MONTROSE COUNTY,Provides a food box to individuals and families in need in the community.,"No restrictions applied Area Served: Delta, Montrose, Ouray counties","Monday - Friday, 8:00 a.m. - 4:00 p.m.",(970) 249-4774,No Website Listed,38.4814246,-107.8857893
Food Pantry,JUNCTION COMMUNITY CHURCH,2867 Orchard Ave,Grand Junction,CO,81501,MESA COUNTY,"Provides a food box to individuals, seniors and families in need in the community. Families are limited to one box a month.","Low-Income Individuals, Seniors and Families in need Area Served: Mesa County","Monday - Friday, 9 a.m. - 12 p.m., 12:30 p.m. - 4...",(970) 243-0757,http://jctcc.net/saras-pantry,39.0842939,-108.5210788
Food Pantry,ST. PATRICK'S EPISCOPAL CHURCH,225 S Pagosa Blvd,Pagosa Springs,CO,81147,ARCHULETA COUNTY,Provides a food pantry with fresh and frozen foods.,Low-income individuals in Archuleta County Area Served: Archuleta County,"Thursday, Friday, 10 a.m. - 12 p.m.",(970) 731-5801,http://stpatrickspagosa.org/food-for-our-community,37.2344382,-107.0706847
Supportive Services,PRAIRIE FAMILY CENTER,1040 Rose Ave,Burlington,CO,80807,KIT CARSON COUNTY,"Provides the following programs to support families: Nurturing Parenting Classes Youth Exercise Programs Weekly Senior Exercise Classes Cooking Classes for Kids, Teens, Families and Adults Thrift StoreFood Pantry and Personal Grooming SuppliesResource and Referral Senior Commodities Assistance Circle Talk - A group for seniors to interac...",Residents of the service area Area Served: Kit Carson County,"Monday - Thursday, 9 a.m. - 4 p.m.; Friday, 9 a.m...",(719) 346-5398,http://prairiefamilycenter.com,39.3009294,-102.2633274
Food Pantry,HARVEST BIBLE CHURCH,826 S Elbert St,Elizabeth,CO,80107,ELBERT COUNTY,Provides food and necessary supplies for individuals in need.,"Residents of the service area Area Served: Douglas, Elbert counties","Monday, Wednesday, Friday, 10 a.m. - 12 p.m.",(303) 646-3699,http://harvestelizabeth.com/food-bank,39.355462,-104.5978498
Food Pantry,ACTION CENTER,8745 W 14th Ave,Lakewood,CO,80215,JEFFERSON COUNTY,"Offers a community food pantry that individuals can utilize once a month. Groceries vary by day, but typically include non-perishable and perishable food items such as: Fresh vegetables Fruits Dairy Proteins Emergency diapers and personal hygiene items may...","No restrictions applied Area Served: Adams, Arapahoe, Boulder, Broomfield, Clear Creek, Denver, Douglas, Elbert, Gilpin,...","Monday, Tuesday, Thursday, Friday, 9 a.m. - 11:45...",(303) 237-7704,http://theactioncenter.org,39.7385136,-105.094918
Food Pantry,OPEN ARMS FOOD BANK,6500 W Coal Mine Ave,Littleton,CO,80123,JEFFERSON COUNTY,Provides a food pantry to those in need.,"No restrictions applied Area Served: Cities of Castle Rock, Louviers, Roxborough, Sedalia","Tuesday, 12 p.m. - 3 p.m.",(720) 667-3145,http://openarmsfoodbank.org/,39.593652,-105.0690396
Food Pantry,EMERGENCY FAMILY ASSISTANCE ASSOCIATION,1575 Yarmouth Ave,Boulder,CO,80304,BOULDER COUNTY,Provides a food pantry to people living in the City of Boulder and Boulder County Mountain Communities with access to a kitchen. Eligible households may visit the food bank twice per month...,"Residents of the service area who have access to a kitchen Area Served: City of Boulder; Zip Codes Served:  80503, 80544,...","Monday, Wednesday, Friday, 12 p.m. - 4:30 p.m.; T...",(303) 442-3042,http://efaa.org/get-help/food-bank/,40.058333,-105.2778705
Food Pantry,BAYAUD ENTERPRISES,313 W Bayaud Ave,Denver,CO,80223,DENVER COUNTY,Provides food to low-income individuals and families in need or when they are experiencing an emergency situation. Food distribution is based on household size...,"No restrictions applied Area Served: Adams, Arapahoe, Denver, Douglas, Jefferson counties","Monday - Thursday, 8 a.m. - 2 p.m.",(303) 830-6885,http://bayaudenterprises.org,39.7150853,-104.9931475
Food Bank,KIOWA CREEK COMMUNITY CHURCH,231 Cheyenne St,Kiowa,CO,80117,ELBERT COUNTY,Offers a client choice food pantry for residents of Elbert County and adjacent communities. Also serves as The Emergency Food Assistance Program (TEFAP) and the Commodity Supplemental Food Program (CSFP) distributor for USDA commodities...,"Individuals and families living in the service area Area Served:  Elbert County; Cities of Ramah, Calhan, Peyton, Deer Tr...","Monday, 9 a.m. - 1 p.m.; Tuesday, 3 p.m. - 6 p.m....",(303) 243-6500,http://kiowacreek.org,39.3480581,-104.4665963
Food Pantry,CROSSROADS MINISTRY OF ESTES PARK,1753 Wildfire Rd,Estes Park,CO,80517,LARIMER COUNTY,Offers drive-up food pantry to Estes Valley residents in need.,"No restrictions applied Area Served: Towns of Estes Park, Glen Haven, Drake, Pinewood Springs, Allenspark (Park R-3 Scho...","Monday - Thursday, 10 a.m. - 4 p.m.; Friday, 10 a...",(970) 577-0610,http://crossroadsep.org,40.3872371,-105.4903162
Food Pantry & Clothing Services,NEDERLAND FOOD PANTRY,750 CO-72,Nederland,CO,80466,BOULDER COUNTY,Offers supplemental food and clothing support to residents of Boulder and Gilpin counties.,"Residents of the service area Area Served: Gilpin County; Cities of Nederland, Gold Hill, Ward, Jamestown, Allenspark, L...","Monday, Thursday, Friday, 10 a.m. - 3 p.m.; Satur...",(720) 418-0892,http://nederlandfoodpantry.org,39.9646517,-105.5121659
Food Pantry,WATERSTONE COMMUNITY CHURCH,5890 S Alkire St,Littleton,CO,80127,JEFFERSON COUNTY,Provides a self-serve food pantry to individuals and families in need.,No restrictions applied Area Served:  Jefferson County,"Monday - Thursday, 9 a.m. - 4 p.m. (Administrativ...",(303) 972-2200,http://waterstonechurch.org/article/food-pantry/,39.609851,-105.14749
Food Pantry,CONNECTION CHURCH - MESA COUNTY,655 N 1st St,Grand Junction,CO,81501,MESA COUNTY,Offers a food pantry for residents of Mesa County. Food delivery is distributed on the 3rd Thursday of each month. Limited number of boxes...,No restrictions Area Served: Mesa County,"3rd Thursday of the Month, 9:00 am - 11:00 am",(970) 523-1857,http://www.connectionchurchlive.com,39.073337,-108.5719646
Food Bank,SOUTHWEST IMPROVEMENT COUNCIL,5045 W 1st Ave,Denver,CO,80219,DENVER COUNTY,Offers a food bank for anyone in need.Available food includes:Fresh fruits and vegetables Canned goods Dry goods Pastas Breads Variety of meatsEgg...,"No restrictions applied Area Served: Adams, Arapahoe, Denver, Douglas, Jefferson counties","Monday - Friday, 9 a.m. - 5 p.m.",(303) 934-2181,http://swic-denver.org,39.7184431,-105.0515586
Animal Food pantry,ROICE-HURST HUMANE SOCIETY,362 28 Rd,Grand Junction,CO,81501,MESA COUNTY,Provides pet food for pet owners who have fallen on hard times. Also has a variety of other pet-related items such as toys and leashes...,Those in the service area in need of pet food. Area Served:  Mesa County,"Tuesday - Sunday, 12 a.m. - 4 p.m.",(970) 434-7337,http://rhhumanesociety.org,39.0575697,-108.5333242
Free Food Market,FAMILY AND INTERCULTURAL RESOURCE CENTER,1745 Airport Rd,Breckenridge,CO,80424,SUMMIT COUNTY,Provides free food items for all community members including: Fresh produce Milk Eggs Meat Dairy products,"No restrictions applied Area Served: Summit, Park, Grand, Lake counties",Hours Vary,(970) 262-3888,http://summitarc.org/en/food-and-thrift,39.5066985,-106.0518861
Food Pantry,LIFT-UP,465 N Mill St,Aspen,CO,81611,PITKIN COUNTY,Provides a food box to individuals and families in need.,No restrictions applied Area Served:  Pitkin County,"Tuesdays, 2 pm - 6 pm",(970) 544-2009,http://www.liftup.org,39.1936369,-106.8183609
Food Pantry,LIFT-UP,520 S 3rd St Unit 35,Carbondale,CO,81623,GARFIELD COUNTY,Provides a food box to individuals and families in need.,No restrictions applied Area Served: Garfield County,"Monday, 10:30 am - 12:30 pm; Wednesday, 4 pm - 5pm",(970) 963-1778,http://www.liftup.org,39.396907,-107.2098347
Food Pantry,LIFT-UP,1004 Grand Ave,Glenwood Springs,CO,81601,GARFIELD COUNTY,Provides a food box to individuals and families in need.,No restrictions applied Area Served: Garfield County,"Thursday, 10:30 am - 12:30 pm",(970) 945-2005,http://www.liftup.org,39.5439113,-107.3247246
Food Pantry,LIFT-UP,126 N 4th St,Silt,CO,81652,GARFIELD COUNTY,Provides a food box to individuals and families in need.,No restrictions applied Area Served:  Garfield County,"Wednesday , Friday, 9:00 am - 1:00 pm",(970) 984-2115,http://www.liftup.org,39.5471941,-107.658986
Food Pantry,LIFT-UP,201 E 1st St,Parachute,CO,81635,GARFIELD COUNTY,Provides a food box to individuals and families in need.,No restrictions applied Area Served: Garfield County,"Monday, 3 pm - 6 pm",(970) 285-0221,http://www.liftup.org,39.453122,-108.0510757
Food Pantry,LIFT-UP,800 Railroad Ave,Rifle,CO,81650,GARFIELD COUNTY,Provides a food box to individuals and families in need.,No restrictions applied Area Served: Garfield County,"Tuesday - Thursday, 9:00 am - 12:00 pm, 1:00 pm -...",(970) 625-4888,http://www.liftup.org,39.536877,-107.782894
Food Pantry - Full Force Ministries,CARE AND SHARE - PUEBLO DISTRIBUTION CENTER,1101 Cedar St,Pueblo,CO,81004,PUEBLO COUNTY,Food Pantry providing food to those in need.,Residents of Pueblo County Area Served: Pueblo County,"Hours vary, see Service for specified Hours",(719) 304-6592,https://careandshare.org,38.247706,-104.619755
Food Pantry - BAND (Bessemer Association for Neighborhood Development),CARE AND SHARE - PUEBLO DISTRIBUTION CENTER,215 Canal St,Pueblo,CO,81004,PUEBLO COUNTY,Food Pantry providing food to those in need.,Residents of Pueblo County Area Served:  Pueblo County,"2nd Friday, 2 p.m.",(719) 296-6995,No Website Listed,38.2378686,-104.6124281
Food Pantry - The Avenue Church,CARE AND SHARE - PUEBLO DISTRIBUTION CENTER,3030 Thatcher Ave,Pueblo,CO,81005,PUEBLO COUNTY,Food Pantry for those in need.,Residents of Pueblo County Area Served: Pueblo County,"Hours vary, see Service for specified Hours",(719) 296-6995,https://careandshare.org,38.2584224,-104.6470546
Food Pantry - Sangre de Cristo Volunteers for Community,CARE AND SHARE - PUEBLO DISTRIBUTION CENTER,5000 Cuerno Verde Blvd,Colorado City,CO,81019,PUEBLO COUNTY,"Food Pantry providing food to those in need. Drive up/walk up (Outside), Grab and go (pre-packaged)","Residents of Greenhorn Valley Area Served: Town of Rye, Colorado City","Hours vary, see Service for specified Hours",(719) 250-6097,No Website Listed,37.9523058,-104.8540234
Food Pantry - The Emergency Food Assistance Program (TEFAP) Canon City,CARE AND SHARE - PUEBLO DISTRIBUTION CENTER,801 Main St,Ca単on City,CO,81212,FREMONT COUNTY,Food Pantry providing food to those in need. The Emergency Food Assistance Program (TEFAP) at First United Methodist church in Canon Cit...,Residents of Fremont County Area Served: Fremont County,"Hours vary, see Service for specified Hours",(719) 275-0681,No Website Listed,38.442525,-105.236751
Food Pantry - Praise Community Church in Pioneer Park,CARE AND SHARE - PUEBLO DISTRIBUTION CENTER,Pioneer Park N Pikes Peak Ave,Florence,CO,81226,FREMONT COUNTY,Food Pantry providing food to those in need.,Residents of Fremont County Area Served: Fremont County,"1st Friday, 12 p.m.",(719) 296-6995,No Website Listed,38.393003,-105.116899
Mobile Food Pantry,WE DON'T WASTE,12095 E Montview Blvd,Aurora,CO,80010,ADAMS COUNTY,Provides a mobile food pantry to those in need.,"No restrictions applied Area Served: Denver, Adams, Arapahoe, Jefferson, Douglas, Broomfield, Boulder, El Paso counties","3rd Saturday, 1 p.m. - 3 p.m.",(720) 943-2699,http://wedontwaste.org/mobile-food-markets,39.7482584,-104.8482312
Mobile Food Pantry,WE DON'T WASTE,695 Julian St,Denver,CO,80204,DENVER COUNTY,Provides a mobile food pantry to those in need.,"No restrictions applied Area Served: Denver, Adams, Arapahoe, Jefferson, Douglas, Broomfield, Boulder, El Paso counties","3rd Tuesday, 1 p.m. - 3 p.m.",(720) 943-2699,http://wedontwaste.org/mobile-food-markets,39.7274685,-105.0317192
Mobile Food Pantry,WELD FOOD BANK,701 Carbondale Dr,Dacono,CO,80514,WELD COUNTY,Offers mobile food pantries at locations throughout Weld County.,No restrictions applied Area Served:  Weld County,"1st, 4th Thursday, 10 a.m.",(970) 356-2199,http://weldfoodbank.org/and-food-near-you,40.0872704,-104.93298
Mobile Food Pantry,WELD FOOD BANK,1400 37th St,Evans,CO,80620,WELD COUNTY,Offers mobile food pantries at locations throughout Weld County.,No restrictions applied Area Served: Weld County,"2nd Tuesday, 11 a.m. (June - July); 4 p.m. (Augus...",(970) 356-2199,http://weldfoodbank.org/and-food-near-you,40.377942,-104.7442845
Mobile Food Pantry,WELD FOOD BANK,3001 8th Ave,Evans,CO,80620,WELD COUNTY,Offers mobile food pantries at locations throughout Weld County.,No restrictions applied Area Served: Weld County,"2nd, 4th Friday, 10 a.m.",(970) 356-2199,http://weldfoodbank.org/and-food-near-you,40.387153,-104.690398
Mobile Food Pantry,WELD FOOD BANK,12285 State Hwy 52,Fort Lupton,CO,80621,WELD COUNTY,Offers mobile food pantries at locations throughout Weld County.,No restrictions applied Area Served: Weld County,"3rd Thursday, 10 a.m.",(970) 356-2199,http://weldfoodbank.org/and-food-near-you,40.080061,-104.829141
Mobile Food Pantry,WELD FOOD BANK,4185 Salazar Way,Longmont,CO,80504,WELD COUNTY,Offers mobile food pantries at locations throughout Weld County.,No restrictions applied Area Served: Weld County,"2nd Wednesday, 9 a.m.",(970) 356-2199,http://weldfoodbank.org/and-food-near-you,40.129416,-104.970816
Mobile Food Pantry,WELD FOOD BANK,14827 Co Rd 42,La Salle,CO,80645,WELD COUNTY,Offers mobile food pantries at locations throughout Weld County.,No restrictions applied Area Served: Weld County,"2nd Thursday, 10 a.m.",(970) 356-2199,http://weldfoodbank.org/and-food-near-you,40.289926,-104.767284
Mobile Food Pantry,WELD FOOD BANK,26221 Co Rd 53,Kersey,CO,80644,WELD COUNTY,Offers mobile food pantries at locations throughout Weld County.,No restrictions applied Area Served: Weld County,Hours Vary (By Appointment Only),(970) 356-2199,http://weldfoodbank.org/and-food-near-you,40.376941,-104.564282
Mobile Food Pantry,WELD FOOD BANK,Co Rd 37 & Lilac Dr,Lochbuie,CO,80603,WELD COUNTY,Offers mobile food pantries at locations throughout Weld County.,No restrictions applied Area Served:  Weld County,"4th Monday, 10 a.m.",(970) 356-2199,http://weldfoodbank.org/and-food-near-you,40.040963,-104.716037
Mobile Food Pantry,WELD FOOD BANK,501 Palmer Ave,Mead,CO,80542,WELD COUNTY,Offers mobile food pantries at locations throughout Weld County.,No restrictions applied Area Served: Weld County,"1st Friday, 10:30 a.m.",(970) 356-2199,http://weldfoodbank.org/and-food-near-you,40.237483,-105.001513
Mobile Food Pantry,WELD FOOD BANK,320 Centennial Dr,Milliken,CO,80543,WELD COUNTY,Offers mobile food pantries at locations throughout Weld County.,No restrictions applied Area Served: Weld County,"4th Wednesday, 10 a.m.",(970) 356-2199,http://weldfoodbank.org/and-food-near-you,40.3263935,-104.8311501
Mobile Food Pantry,WELD FOOD BANK,1108 H Street,Greeley,CO,80631,WELD COUNTY,Offers mobile food pantries at locations throughout Weld County.,No restrictions applied Area Served: Weld County,"3rd Wednesday, 10 a.m.",(970) 356-2199,http://weldfoodbank.org/and-food-near-you,40.4437132,-104.6987994
Mobile Food Pantry,WELD FOOD BANK,1020 Walnut St,Windsor,CO,80550,WELD COUNTY,Offers mobile food pantries at locations throughout Weld County.,No restrictions applied Area Served: Weld County,"1st Wednesday, 10 a.m.",(970) 356-2199,http://weldfoodbank.org/and-food-near-you,40.4789682,-104.9135075
Mobile Food Pantry,WELD FOOD BANK,Cherry St & Main St,Hudson,CO,80642,WELD COUNTY,Offers mobile food pantries at locations throughout Weld County.,No restrictions applied Area Served: Weld County,"1st, 3rd Monday, 10 a.m.",(970) 356-2199,http://weldfoodbank.org/and-food-near-you,40.073219,-104.642845
Food Pantry,CARBON VALLEY HELP CENTER,150 Buchanan Ave,Firestone,CO,80520,WELD COUNTY,Offers a food pantry accessible once per month. Nonperishable food donations are accepted. Individuals can also call to learn more about volunteer opportunities...,Individuals must reside within the Weld County portion of St. Vrain Valley School District boundaries Area Served:  Citie...,"Tuesday, Thursday, 9 a.m. - 3 p.m.",(303) 833-6626,http://carbonvalleyhelpcenter.org,40.113085,-104.9382484
Drive-Thru Food Pantry,STRUGGLE OF LOVE FOUNDATION,12000 E 47th Ave Suite 403,Denver,CO,80239,DENVER COUNTY,"Offers a drive-thru food pantry, where clients receive a pre-made box of: Fresh produce Meats Dairy Other food items",No restrictions applied Area Served: Statewide,"Monday - Friday, 9 a.m. - 5 p.m.",(720) 923-6122,http://struggleofovefoundation.org/,39.7820807,-104.8504283
Food Pantry,ST PETER ROMAN CATHOLIC CHURCH,1112 9th Ave,Greeley,CO,80631,WELD COUNTY,Provides emergency food to individuals in need. Also offers hygiene items when available.,No restrictions applied Area Served: City of Greeley,"Monday - Thursday, 8 a.m. - 4 p.m., Friday, 8 a.m...",(970) 352-1060,http://stpetergreeley.org,40.4209079,-104.6925472
Food Pantry for Individuals Living with HIV,VIVENT HEALTH,5250 Leetsdale Dr Suite 300,Denver,CO,80246,DENVER COUNTY,Offers a monthly food pantry to individuals living with HIV.,"Individuals living with HIV Area Served: Adams, Arapahoe, Broomfield, Denver, Douglas, Jefferson counties","Monday - Friday, 8:30 a.m. - 5 p.m.",(303) 393-8050,http://viventhealth.org,39.7079062,-104.9263138
Mobile Food Pantry,FOOD BANK OF THE ROCKIES,15555 E 53rd Ave,Denver,CO,80239,DENVER COUNTY,Provides food to communities by sending semi-trucks to set locations and distributing food for 1-2 hours.,"No restrictions applied Area Served: Adams, Arapahoe, Delta, Denver, Douglas, Eagle, Elbert, Garfield, Gilpin, Grand, Ja...","1st, 3rd Tuesday, 9 a.m. (While Supplies Last)",(303) 375-5853,http://foodbankrockies.org,39.7899826,-104.8062321
Mobile Food Pantry,COMMUNITY FOOD SHARE,4990 Osage Dr,Boulder,CO,80303,BOULDER COUNTY,"Operates a mobile food pantry at rotating locations, offering: Fresh produce Dairy Non-perishable pantry items","Residents of the service area Area Served: Boulder, Broomfield counties","1st, 3rd Wednesday, 10 a.m. - 11 a.m.",(303) 652-3663,http://communityfoodshare.org/get-food/services-we-provide/mobile-pantries/,39.990138,-105.232704
Food Bank,MOUNTAIN FAMILY CENTER,45 Co Rd 804,Winter Park,CO,80482,GRAND COUNTY,Provides food for families or individuals in need. Also offers emergency food items outside each location.,Individuals must be Grand County residents. Area Served: Grand County,"Monday, Tuesday, Thursday - Saturday, 10 a.m. - 6...",(970) 557-3186,http://mountainfamilycenter.org,39.946677,-105.810881
Food Pantry,EPWORTH FOUNDATION,1865 Bruce Randolph Ave,Denver,CO,80205,DENVER COUNTY,Offers a food pantry.,No restrictions applied Area Served: Denver County,"Monday - Friday, 10 a.m. - 2 p.m. (Administrative...",(303) 296-6287,http://epworthfoundation.org,39.7645786,-104.9651911
Cat Food Pantry,CAT CARE SOCIETY,5787 W 6th Ave,Lakewood,CO,80214,JEFFERSON COUNTY,Offers cat food and supplies to individuals who are experiencing temporary financial challenges.,No restrictions applied Area Served: Statewide,"Thursday - Monday, 12 p.m. - 6 p.m.",(303) 239-9680,http://catcaresociety.org/programs/#nibbles-kibbles,39.7271071,-105.0816301
Food Assistance,LOVE INC OF THE YAMPA VALLEY,301 Stegosaurus Fwy,Dinosaur,CO,81610,MOFFAT COUNTY,Provides food to qualified individuals and families through: The Emergency Food Assistance Program (TEFAP) The Commodity Supplemental Food Program (CSFP)Donation...,"For TEFAP assistance, households must meet the following income guidelines or be participating in one of the programs l...",By Appointment Only,(970) 826-4400,http://loveincyampavalley.org/services,40.2433096,-109.0102054
Food Bank,ATLAS PREPARATORY SCHOOL,1602 S Murray Blvd,Colorado Springs,CO,80916,EL PASO COUNTY,Offers a food bank.,No restrictions applied Area Served:  El Paso County,"Thursday, 8 a.m. - 11 a.m., 1 p.m. - 5 p.m.; Frid...",(719) 358-7196,http://atlasprep.org,38.810615,-104.7506033
Mobile Food Pantry,WE DON'T WASTE,3201 W Arizona Ave,Denver,CO,80219,DENVER COUNTY,Offers a mobile food pantry.,"No restrictions applied Area Served: Denver, Adams, Arapahoe, Jefferson, Douglas, Broomfield, Boulder, El Paso counties","2nd, 4th Friday, 11 a.m.- 1 p.m.",(720) 943-2699,http://wedontwaste.org/mobile-food-markets,39.6957721,-105.027704
Food Bank,THRIVE CHURCH,2720 W 92nd Ave,Federal Heights,CO,80260,ADAMS COUNTY,Provides food for the community.,No restrictions applied Area Served: Statewide,"Monday, 12 p.m. - 5 p.m.; Tuesday - Friday, 9 a.m...",(303) 428-9535,http://wethrive.org,39.8634187,-105.0211161
Drive-Through Food Pantry,LITTLETON CHURCH OF CHRIST,6495 S Colorado Blvd,Centennial,CO,80121,ARAPAHOE COUNTY,Provides a drive-through food pantry for those in need.,"No restrictions applied Area Served: Arapahoe, Denver, Douglas, Jefferson counties","Monday - Thursday, 8:30 a.m. - 5 p.m.",(303) 741-0265,http://littletonchurch.org/missions-local,39.5989196,-104.9414419
Mobile Food Pantry,FOOD BANK FOR LARIMER COUNTY,375 Meadowlark Dr,Berthoud,CO,80513,LARIMER COUNTY,Offers a drive-through mobile food pantry for those in need.,Larimer County residents Area Served:  Larimer County,"2nd, 4th Saturday, 10 a.m. - 11:30 a.m., starting...",(970) 493-4477,http://foodbanklarimer.org/mobiles,40.3032363,-105.1045129
Mobile Food Pantry,FOOD BANK FOR LARIMER COUNTY,1815 Yorktown Ave,Fort Collins,CO,80526,LARIMER COUNTY,Offers a drive-through mobile food pantry for those in need.,Larimer County residents Area Served: Larimer County,"2nd, 4th Sunday, 1 p.m. - 2:30 p.m., starting Jun...",(970) 493-4477,http://foodbanklarimer.org/mobiles,40.5532824,-105.1102857
Mobile Food Pantry,FOOD BANK OF THE ROCKIES,5810 W Alameda Ave,Lakewood,CO,80226,JEFFERSON COUNTY,Provides food to communities by sending semi-trucks to set locations and distributing food for 1-2 hours.,"No restrictions applied Area Served:  Adams, Arapahoe, Delta, Denver, Douglas, Eagle, Elbert, Garfield, Gilpin, Grand, Ja...","2nd, 4th Thursday, 9 a.m. (While Supplies Last)",(303) 375-5853,http://foodbankrockies.org,39.7110864,-105.060541
Mobile Food Pantry,FOOD BANK OF THE ROCKIES,718 Ellsworth St,Brush,CO,80723,MORGAN COUNTY,Provides food to communities by sending semi-trucks to set locations and distributing food for 1-2 hours.,"No restrictions applied Area Served:  Adams, Arapahoe, Delta, Denver, Douglas, Eagle, Elbert, Garfield, Gilpin, Grand, Ja...","4th Wednesday, 10 a.m. (While Supplies Last)",(303) 375-5853,http://foodbankrockies.org,40.2510999,-103.6283872
Mobile Food Pantry,FOOD BANK OF THE ROCKIES,340 S 14th St,Burlington,CO,80807,KIT CARSON COUNTY,Provides food to communities by sending semi-trucks to set locations and distributing food for 1-2 hours.,"No restrictions applied Area Served: Adams, Arapahoe, Delta, Denver, Douglas, Eagle, Elbert, Garfield, Gilpin, Grand, Ja...","2nd Monday, 9 a.m. (While Supplies Last)",(303) 375-5853,http://foodbankrockies.org,39.2984288,-102.2679922
Mobile Food Pantry,FOOD BANK OF THE ROCKIES,1250 Chambers Rd,Aurora,CO,80011,ARAPAHOE COUNTY,Provides food to communities by sending semi-trucks to set locations and distributing food for 1-2 hours.,"No restrictions applied Area Served: Adams, Arapahoe, Delta, Denver, Douglas, Eagle, Elbert, Garfield, Gilpin, Grand, Ja...","2nd, 4th Tuesday, 4 p.m. (While Supplies Last)",(303) 375-5853,http://foodbankrockies.org,39.7342894,-104.8091181
Mobile Food Pantry,FOOD BANK OF THE ROCKIES,1120 Pawnee Ave,Sterling,CO,80751,LOGAN COUNTY,Provides food to communities by sending semi-trucks to set locations and distributing food for 1-2 hours.,"No restrictions applied Area Served: Adams, Arapahoe, Delta, Denver, Douglas, Eagle, Elbert, Garfield, Gilpin, Grand, Ja...","4th Tuesday, 9 a.m. (While Supplies Last)",(303) 375-5853,http://foodbankrockies.org,40.6381782,-103.2170882
Mobile Food Pantry,FOOD BANK OF THE ROCKIES,200 W 4th St,Leadville,CO,80461,LAKE COUNTY,Provides food to communities by sending semi-trucks to set locations and distributing food for 1-2 hours.,"No restrictions applied Area Served: Adams, Arapahoe, Delta, Denver, Douglas, Eagle, Elbert, Garfield, Gilpin, Grand, Ja...","1st Wednesday, 10 a.m. - 11 a.m.",(303) 375-5853,http://foodbankrockies.org,39.246584,-106.293641
Mobile Food Pantry,FOOD BANK OF THE ROCKIES,551 W 2nd St,Akron,CO,80720,WASHINGTON COUNTY,Provides food to communities by sending semi-trucks to set locations and distributing food for 1-2 hours.,"No restrictions applied Area Served: Adams, Arapahoe, Delta, Denver, Douglas, Eagle, Elbert, Garfield, Gilpin, Grand, Ja...","4th Monday, 9 a.m. (While Supplies Last)",(303) 375-5853,http://foodbankrockies.org,40.1601113,-103.2162708
Mobile Food Pantry,FOOD BANK OF THE ROCKIES,410 W Hoag Ave,Yuma,CO,80759,YUMA COUNTY,Provides food to communities by sending semi-trucks to set locations and distributing food for 1-2 hours.,"No restrictions applied Area Served: Adams, Arapahoe, Delta, Denver, Douglas, Eagle, Elbert, Garfield, Gilpin, Grand, Ja...","3rd Monday, 9 a.m. (While Supplies Last)",(303) 375-5853,http://foodbankrockies.org,40.1293221,-102.7305987
Mobile Food Pantry,FOOD BANK OF THE ROCKIES,9200 W 10th Ave,Lakewood,CO,80215,JEFFERSON COUNTY,Provides food to communities by sending semi-trucks to set locations and distributing food for 1-2 hours.,"No restrictions applied Area Served: Adams, Arapahoe, Delta, Denver, Douglas, Eagle, Elbert, Garfield, Gilpin, Grand, Ja...","1st, 3rd Wednesday, 9 a.m. (While Supplies Last)",(303) 375-5853,http://foodbankrockies.org,39.732825,-105.100372
Mobile Food Pantry,FOOD BANK OF THE ROCKIES,585 S Main St,Byers,CO,80103,ARAPAHOE COUNTY,Provides food to communities by sending semi-trucks to set locations and distributing food for 1-2 hours.,"No restrictions applied Area Served: Adams, Arapahoe, Delta, Denver, Douglas, Eagle, Elbert, Garfield, Gilpin, Grand, Ja...","2nd Monday, 9 a.m. (While Supplies Last)",(303) 375-5853,http://foodbankrockies.org,39.7034101,-104.2239264
Mobile Food Pantry,FOOD BANK OF THE ROCKIES,2820 W 92nd Ave,Federal Heights,CO,80260,ADAMS COUNTY,Provides food to communities by sending semi-trucks to set locations and distributing food for 1-2 hours.,"No restrictions applied Area Served: Adams, Arapahoe, Delta, Denver, Douglas, Eagle, Elbert, Garfield, Gilpin, Grand, Ja...","1st, 3rd Wednesday, 3 p.m. (While Supplies Last)",(303) 375-5853,http://foodbankrockies.org,39.8634173,-105.0215369
Mobile Food Pantry,FOOD BANK OF THE ROCKIES,3000 S Jamaica Ct,Aurora,CO,80014,ARAPAHOE COUNTY,Provides food to communities by sending semi-trucks to set locations and distributing food for 1-2 hours.,"No restrictions applied Area Served: Adams, Arapahoe, Delta, Denver, Douglas, Eagle, Elbert, Garfield, Gilpin, Grand, Ja...","2nd Wednesday, 9 a.m. (While Supplies Last)",(303) 375-5853,http://foodbankrockies.org,39.6616056,-104.8617704
Mobile Food Pantry,FOOD BANK OF THE ROCKIES,1070 Alton Way,Aurora,CO,80010,DENVER COUNTY,Provides food to communities by sending semi-trucks to set locations and distributing food for 1-2 hours.,"No restrictions applied Area Served: Adams, Arapahoe, Delta, Denver, Douglas, Eagle, Elbert, Garfield, Gilpin, Grand, Ja...","4th Tuesday, 9 a.m. - 10:30 a.m.",(303) 375-5853,http://foodbankrockies.org,39.7305636,-104.8835054
Mobile Food Pantry,FOOD BANK OF THE ROCKIES,9065 Grant St,Thornton,CO,80229,ADAMS COUNTY,Provides food to communities by sending semi-trucks to set locations and distributing food for 1-2 hours.,"No restrictions applied Area Served: Adams, Arapahoe, Delta, Denver, Douglas, Eagle, Elbert,","Garfield, Gilpin, Grand, Ja...","3rd Thursday, 1 p.m. (While Supplies Last)",(303) 375-5853,39.8613997,-104.9829063
Mobile Food Pantry,FOOD BANK OF THE ROCKIES,Co Rd 42,Walden,CO,80480,JACKSON COUNTY,Provides food to communities by sending semi-trucks to set locations and distributing food for 1-2 hours.,"No restrictions applied Area Served: Adams, Arapahoe, Delta, Denver, Douglas, Eagle, Elbert, Garfield, Gilpin, Grand, Ja...","4th Saturday, 9 a.m. (While Supplies Last, Food P...",(303) 375-5853,http://foodbankrockies.org,40.72788,-106.27625
Food Bank,ROCK FOUND,1542 7th Ave,Greeley,CO,80631,WELD COUNTY,Provides food boxes to individuals and families in need.,No restrictions applied Area Served: Weld County,"Monday - Friday, 8:30 a.m. - 4:30 p.m.",(970) 352-9571,http://therockfound.org,40.4148086,-104.6890211
Mobile Food Pantry,KIDS AT THEIR BEST,801 W Platte Ave,Fort Morgan,CO,80701,MORGAN COUNTY,Offers a mobile food pantry that travels to 6 different locations to deliver groceries to any families in need.,No restrictions applied Area Served: Morgan County,Hours Vary,(970) 380-6096,http://kidsattheirbest.org/food,40.254094,-103.81188
Food Boxes,GROWHAUS,3840 York Street Ste. 210,Denver,CO,80205,DENVER COUNTY,"Provides a subscription service that delivers fresh, organic produce.","No restrictions Area Served: Adams, Arapahoe, Broomfield, Boulder, Denver, Douglas, Jefferson counties","Monday - Friday, 9 a.m. - 5 p.m.",(720) 515-4751 Ext 724,http://foodboxes.thegrowhaus.org/,39.7700882,-104.9596329
"Emergency Food, Clothing, Household Goods",GRAND VALLEY ADVENTIST COMMUNITY SERVICE CENTER,2554 Patterson Rd,Grand Junction,CO,81505,MESA COUNTY,"Provides emergency food boxes, clothing assistance, and household goods.",No restrictions applied Area Served: Mesa County,"Tuesday, 9 a.m. - 11:45 a.m., 1 p.m. - 2:45 p.m.",(970) 242-2277,http://grandvalleyacs.org,39.0922633,-108.579287
Mobile Food Pantry (Bookcliff Middle School),WESTERN SLOPE FOOD BANK OF THE ROCKIES,540 29 1/4 Rd,Grand Junction,CO,81504,MESA COUNTY,Mobile Food Pantry that is set up at Bookcliff Middle School. Individuals must bring their own bags or boxes to bring home food.,No restrictions Area Served:  Mesa County,"1st Friday, 2 p.m.",(970) 254-6220,https://www.foodbankrockies.org/and-food,39.0819697,-108.5090148
Mobile Food Pantry (Central High School),WESTERN SLOPE FOOD BANK OF THE ROCKIES,6401 Warrior Way,Grand Junction,CO,81504,MESA COUNTY,Mobile Food Pantry set up at Central High School. Individuals must bring their own bags or boxes to take food home.,No restrictions Area Served: Mesa County,"2nd Thursday, 2:30 p.m.",(970) 254-6200,https://www.foodbankrockies.org/and-food,39.0836033,-108.473188
Mobile Food Pantry (Clifton Christian Church),WESTERN SLOPE FOOD BANK OF THE ROCKIES,615 I-70 BUSINESS LOOP,Clifton,CO,81520,MESA COUNTY,Mobile Food Pantry for residents in need. Clients must bring their own bags or boxes to take the food home. Set up is located at Clifton Christian Church...,No restrictions Area Served: Mesa County,"Saturdays, 9 a.m. - 11 a.m.",(970) 464-1138,https://www.foodbankrockies.org/and-food,39.0919442,-108.4532996
Mobile Food Pantry (Clifton Elementary),WESTERN SLOPE FOOD BANK OF THE ROCKIES,3276 F Rd,Clifton,CO,81520,MESA COUNTY,Mobile food pantry set up at Clifton Elementary. Individuals must bring their own bags or boxes to take home food.,No restrictions Area Served: Mesa County,"1st Thursday, 2:30 p.m.",(970) 464-1138,https://www.foodbankrockies.org/and-food,39.0930183,-108.4450923
Mobile Food Pantry (Downtown Vineyard Church),WESTERN SLOPE FOOD BANK OF THE ROCKIES,402 Grand Ave,Grand Junction,CO,81501,MESA COUNTY,Mobile Food Pantry for residents in need. Clients must bring their own bags or boxes to take the food home. Set up is located at the Downtown Vineyard Church...,No restrictions Area Served:  Mesa County,"2nd Monday, 5 p.m. - 7 p.m.",(970) 464-1138,https://www.foodbankrockies.org/and-food,39.0706374,-108.5658952
Mobile Food Pantry (Grand Junction High School),WESTERN SLOPE FOOD BANK OF THE ROCKIES,1400 N 5th St,Grand Junction,CO,81501,MESA COUNTY,Mobile Food Pantry set up at Grand Junction High School. Individuals must bring their own bags or boxes to take home food.,No restrictions Area Served: Mesa County,"3rd Tuesday, 3:30 p.m.",(970) 464-1138,https://www.foodbankrockies.org/and-food,39.080023,-108.564352
Food Pantry,SAINT GEORGE'S EPISCOPAL MISSION,200 W 4th St,Leadville,CO,80461,LAKE COUNTY,Provides food pantry services to families and community members in need.,Residents of Colorado Area Served: Lake County,"Monday, Tuesday, Thursday, Friday, 11 a.m. - 1 p....",(719) 486-3087,http://stgeorgeleadville.org/community-meals--pantry.html,39.246584,-106.293641
Food Pantry,CANYON VIEW VINEYARD CHURCH,736 24 1/2 Rd,Grand Junction,CO,81505,MESA COUNTY,Offers food assistance and groceries to families and individuals facing food insecurity.,No restrictions applied Area Served: Mesa County,"1st, 2nd, 4th Sunday, 11 a.m. - 1 p.m.",(970) 242-7970,http://canyonviewchurch.com,39.1126189,-108.5971541
Food Pantry,BETHEL ASSEMBLY OF GOD,2945 Orchard Ave,Grand Junction,CO,81504,MESA COUNTY,Offers a food pantry for community members in need.,No restrictions applied Area Served: Mesa County,"3rd Saturday, 9 a.m. - 11 a.m.",(970) 243-8247,http://bethelaggj.org,39.0838418,-108.5071473
Food Pantry,CARE AND SHARE - PUEBLO DISTRIBUTION CENTER,1230 E 8th St,Pueblo,CO,81001,PUEBLO COUNTY,Food Pantry providing food to those in need.,Residents of Pueblo County Area Served:  Pueblo County,"Hours vary, see Service for specified Hours",(719) 621-6380,http://sunnysidemarket.org,38.2746857,-104.5902657
Food Pantry,THE SHEPHERD'S HAND,505 S 2nd St,Montrose,CO,81401,MONTROSE COUNTY,Provides food boxes for individuals in need. Also distribution location for TEFAP.,No restrictions applied Area Served: Montrose County,"Monday - Friday, 9 a.m. - 5 p.m.",(970) 275-7215,http://shepherdshandmontrose.org/services,38.4788437,-107.8738377
Food pantry delivery - Nutrition on Wheels NOW,PUEBLO COOPERATIVE CARE CENTER,326 W 8th St,Pueblo,CO,81003,PUEBLO COUNTY,Nutrition On Wheels (NOW) offers a monthly home-bound food delivery service for registered individuals who are 60+ and considered home bound...,Home-bound adults 60 years of age or older who reside in Pueblo County. During the COVID,emergency other at risk Home-...,"Monday - Thursday, 9 a.m. - 1 p.m.",(719) 543-7484,38.2742368,-104.6106224
Food Boxes,CHAIN OF LOVE,1402 S Main St,Delta,CO,81416,DELTA COUNTY,"Provides drive-up food box services, including:MeatVegetableCommodities",Residents of the service area Area Served: Delta and Montrose counties,"Monday - Friday, 8 a.m. - 5 p.m.",(970) 210-5924,http://chainofove.net,38.7284528,-108.0676555
Food Assistance Referrals,SALVATION ARMY LA PLATA COUNTY,10 Burnett Ct #327,Durango,CO,81301,LA PLATA COUNTY,Provides referrals to Soup kitchen in town and food banks.,Low income individuals or families in service area Area Served: La Plata County,"Monday - Friday, 9 a.m. - 4 p.m.",(970) 317-2094,http://]westernusa.salvationarmy.org/durango,37.2741243,-107.8922753
Community Outreach/Emergency Aid,MUTUAL AID PARTNERS,261 Ute Ave,Grand Junction,CO,81501,MESA COUNTY,Offers: Fresh produce and non-perishable food items Free haircuts Free dog vaccinations and referrals to other community resource Help with voter registration Help with Medicare information Mutual Aid may also be able to help provide gas cards/gas vouchers...,Individuals must be low-income residents of the service area. Area Served: Mesa County,"Tuesday, 11 a.m. - 1:30 p.m. (Office Hours), (10 ...",(970) 316-2019,http://mutualaidpartners.org,39.0652727,-108.5685323
Food Pantry,OPEN BIBLE DE BEQUE,697 Denver Ave,De Beque,CO,81630,MESA COUNTY,Provides a food pantry.,No restrictions applied Area Served: Mesa County,"3rd Wednesday, 3 p.m. - 5:30 p.m.",(970) 201-7092,No Website Listed,39.336225,-108.2165181
Food Pantry,HOTCHKISS COMMUNITY UNITED METHODIST CHURCH,285 2nd St.,Hotchkiss,CO,81419,DELTA COUNTY,Provides nonperishable and frozen items to those that are in need of food on a weekly basis.,Low income individuals and families in the service area Area Served: Delta County,"Tuesday, 9 a.m. - 12 p.m.",(970) 872-3540,http://hotchkisscumc.org,38.8002903,-107.719434
Food Pantry,CROSSFIRE MINISTRIES,3975 N Academy Blvd,Colorado Springs,CO,80917,EL PASO COUNTY,Provides a food pantry to those in need.,No restrictions applied Area Served: El Paso County,"Tuesday - Thursday, 10 a.m. - 3 p.m.; 2nd, 4th Sa...",(719) 447-1806,http://crossareministries.org,38.8893289,-104.755118
Food Pantry,SERVE 6.8 RESOURCE CENTER,1725 W Mulberry St,Fort Collins,CO,80521,LARIMER COUNTY,"No restrictions applied Area Served: Larimer, Weld counties","Wednesday, 10 a.m. - 3 p.m.",(970) 449-5401,http://serve68.org/resource-center/,,40.5813868,-105.1080041
Food Pantry,SERVE 6.8 RESOURCE CENTER,3429 N Monroe Ave,Loveland,CO,80538,LARIMER COUNTY,Provides food for those in need. Select locations also provide:Hygiene itemsCleaning suppliesPet food,"No restrictions applied Area Served: Larimer, Weld counties","Thursday, 10 a.m. - 12 p.m.",(970) 449-5401,http://serve68.org/resource-center/,40.4294517,-105.0681597
Food Pantry,GOOD SAM'S FOOD PANTRY,30 N Beech St,Cortez,CO,81321,MONTEZUMA COUNTY,"Provides food boxes to individuals, seniors and families in need.","Low-Income individuals, seniors and families in the service area Area Served:  Dolores, Montezuma counties","Monday - Friday, 10 a.m. - 3 p.m.",(970) 565-6424,http://goodsamscortez.org,37.3496019,-108.5835937
Emergency Food Box,MANNA SOUP KITCHEN,1100 Avenida Del Sol,Durango,CO,81301,LA PLATA COUNTY,"Provides emergency food box for individuals, seniors, and families in need.",Must be:Low-income individuals Seniors Families experiencing food insecurity Area Served:  LaPlata County,"Monday - Friday, 8 a.m. - 4 p.m.",(970) 385-5095,http://mannasoupkitchen.org,37.2775658,-107.8859654
Free Food Market,FAMILY AND INTERCULTURAL RESOURCE CENTER,340 Fiedler Ave,Dillon,CO,80435,SUMMIT COUNTY,Provides free food items for all community members including: Fresh produce Milk Eggs Meat Dairy products,"No restrictions applied Area Served:  Summit, Park, Grand, Lake counties","Monday - Friday, 9 a.m. - 5 p.m.",(970) 262-3888,http://summitarc.org/en/food-and-thrift,39.6278749,-106.0446262
Food Pantry,PALISADE CHURCH OF THE NAZARENE,3595 Front St,Palisade,CO,81526,MESA COUNTY,"Provides a food box for individuals, families and seniors.","For low-income individuals, seniors and families in need. Area Served:  Mesa County","3rd Tuesday, 12 p.m. - 2 p.m.",(970) 464-7770,No Website Listed,39.1020177,-108.3857741
Food Pantry,THE ROCK CHURCH,2170 Broadway,Grand Junction,CO,81507,MESA COUNTY,Provides a food box to community members in need. Each household is limited to one food box every twoweeks.,Low-income community members in need Area Served: Mesa County,"Monday - Friday, 9:30 a.m. - 5:30 p.m. (Administr...",(970) 242-7625,http://therockgj.com,39.0857558,-108.647796
Reaching out to Community and Kids Services,REACHING OUT TO COMMUNITY AND KIDS,128 US-491,Dove Creek,CO,81324,DOLORES COUNTY,"ROCK's Services provide: Youth - Program provides skills classes, art classes, summer lunches, and a youth hangout on the weekends...",No restrictions Area Served:  Dolores County,Monday - Friday 8:00 am - 5:00 pm (Administrative...,(970) 739-3562,http://www.dovecreekrocks.com,37.7629569,-108.9026819
Commodities and Food Assistance,FOOD BANK FOR LARIMER COUNTY,1025 Pennock Place Suite 109,Fort Collins,CO,80524,LARIMER COUNTY,Provides a client choice food pantry for individuals in need. Also distributes the Commodities Supplemental Food Program (CSFP) to eligible seniors and The Emergency Food Assistance Program (TFAP)...,Low-income residents of Larimer County Area Served:  Larimer County,"Tuesday, Wednesday, 9 a.m. - 3 p.m.; Thursday, 12...",(970) 493-4477,http://foodbanklarimer.org/our-programs,40.5754599,-105.0592363
Food Pantry,LOAVES AND FISHES MINISTRIES OF FREMONT COUNTY,241 Justice Center Rd,Ca単on City,CO,81212,FREMONT COUNTY,Food pantry in Fremont county. Mobile Food Pantry across the street at 200 Justice center Senior Foodboxes once a month,Low income individuals and families living in Fremont County Area Served:  Canon City,"Monday - Friday, 8 a.m. - 4 p.m.",(719) 275-0593,http://www.lfministries.org,38.4466001,-105.1832613
Mobile Resource Center,EAGLE VALLEY COMMUNITY FOUNDATION,56 Edwards Village Blvd Suite 206 Office #2,Edwards,CO,81632,EAGLE COUNTY,Provides a mobile resource center that offers: Basic health education and screenings Referrals to community programs Food resources Workforce development programs Childhood programs Support in applying to public assistance programs such as: SNAP Medicaid Omni Salud WIC,No restrictions applied Area Served: Eagle County,"Monday - Friday, 9 a.m. - 5 p.m.",(970) 688-0001,http://eaglevalleycf.org/our-programs/mira/,39.6436838,-106.5946396
Drive-Through Food Boxes,YMCA OF METROPOLITAN DENVER,5181 W Kenyon Ave,Denver,CO,80236,DENVER COUNTY,Offers Weekly bags filled with: Fresh produce Protein Grains Dairy,"No restrictions applied Area Served: Cities of Denver, Englewood, Lakewood, Littleton","Monday - Friday, 5:30 a.m. - 8 p.m.; Saturday, 7 ...",(720) 460-6383,http://denverymca.org/food-distribution,39.650594,-105.0525805
Food Pantry (Apple Tree Park),RIVER CENTER OF NEW CASTLE,32956 River Frontage Rd,Silt,CO,81652,GARFIELD COUNTY,Provides a mobile food pantry that offers food to individuals and families in need.,Residents of the service area Area Served:  Garfield County,"Friday, 11 a.m. - 1:30 p.m.",(970) 625-4496,http://rivercenternewcastle.org,39.543338,-107.6633125
Food Bags and Document Attainment,GRAND VALLEY PEACE AND JUSTICE,740 Gunnison Ave,Grand Junction,CO,81501,MESA COUNTY,"Provides light-weight, easy-to-carry food bags for people who are unhoused or live in a vehicle. Also provides assistance obtaining the following: Marriage and divorce decrees Certified school transcripts Court documents Baptismal certificate...",No restrictions applied Area Served:  Mesa County,"Monday - Thursday, 9 a.m. - 2 p.m.",(970) 985-4253,http://gvpeacejustice.org,39.0737314,-108.560061
Food Pantry (Rifle),LIFT-UP,800 Railroad Ave,Rifle,CO,81650,GARFIELD COUNTY,Provides a food box to individuals and families in need,No restrictions Area Served:  Garfield County,"Tuesday - Thursday, 9:00 am - 12:00 pm, 1:00 pm -...",(970) 625-4888,http://www.liftup.org,39.536877,-107.782894
Food Pantry (New Castle),LIFT-UP,126 N 4th St,Silt,CO,81652,GARFIELD COUNTY,Provides a food box to individuals and families in need at River Center in New Castle,No restrictions Area Served: Garfield County,"Wednesday , Friday, 9:00 am - 1:00 pm",(970) 984-2115,http://www.liftup.org,39.5471941,-107.658986
Food Pantry,CEDAREDGE FOOD BANK,245 W Main St,Cedaredge,CO,81413,DELTA COUNTY,Provides food for individuals and families in need; up to 15 meals per household per month.,Low-income residents of the service area. Area Served: Delta County,"Thursday, 1 p.m. - 3 p.m.; Friday, 10 a.m. - 12 p...",(970) 209-4536,http://facebook.com/Cedaredge-Food-Bank-1599141133732917,38.9006119,-107.9258506
Mobile Food Pantry (Aspen Golf Club),WESTERN SLOPE FOOD BANK OF THE ROCKIES,39551 CO-82,Aspen,CO,81611,PITKIN COUNTY,Mobile food pantry that serves Aspen residents in need of food help.,No restrictions Area Served:  Pitkin County,"2nd and 4th Wednesday, 12 pm - 2 pm",(970) 464-1138,https://www.foodbankrockies.org/and-food,39.1959654,-106.8408724
Mobile Food Pantry (El Jebel),WESTERN SLOPE FOOD BANK OF THE ROCKIES,20 Eagle County Dr,El Jebel,CO,81623,EAGLE COUNTY,"Weekly mobile food pantry that provides food to individuals and families in El Jebel, CO.",No restrictions Area Served: Eagle County,"Tuesday, 12pm - 1 pm",(970) 464-1138,https://www.foodbankrockies.org,39.393807,-107.090259
Food Pantry (Edwards),THE COMMUNITY MARKET,429 Edwards Access Rd Suite A202,Edwards,CO,81632,EAGLE COUNTY,"The Community Market is a local warehouse for customers to shop for free. Features a variety of fresh produce, dairy and bread, as well as, shelf-stable grocery items...",No restrictions Area Served: Eagle County,"Tuesday, Thursday, 1 pm- 6 pm, Saturdays , 10 am-...",(970) 328-7900,https://eaglevalleycf.org/the-community-market,39.6482205,-106.5880341
Food Pantry (Gypsum),THE COMMUNITY MARKET,760 Lindbergh Dr Unit #7,Gypsum,CO,81637,EAGLE COUNTY,"The Community Market is a local warehouse for customers to shop for free that features a variety of fresh produce, dairy and bread as well as shelf-stable grocery items...",No restrictions Area Served:  Eagle County,"Monday, Wednesday, Thursday, Friday 10 am - 4 pm,...",(970) 328-7900,https://eaglevalleycf.org/the-community-market,39.6452594,-106.87741
Mobile Food Pantry (Eagle Bend Apartments),THE COMMUNITY MARKET,10 Stonebridge Dr,Avon,CO,81620,EAGLE COUNTY,Mobile food pantry that provides food for individuals and families.,No restrictions Area Served: Eagle County,"1st and 3rd Wednesday of the month, 5:00pm-6:30 pm",(970) 328-7900,https://eaglevalleycf.org/the-community-market,39.6285446,-106.5126308
Mobile Food Pantry (Eagle United Methodist Church),THE COMMUNITY MARKET,333 E 2nd St,Eagle,CO,81631,EAGLE COUNTY,Mobile food pantry that provides food to residents of Eagle County.,No restrictions Area Served: Eagle County,"Monday, 4:30 pm - 6 pm",(970) 328-6598,https://eaglevalleycf.org/the-community-market,39.6553417,-106.8252469
Mobile Food Pantry (Riverview Apartments),THE COMMUNITY MARKET,39169 US-6,Avon,CO,81620,EAGLE COUNTY,Mobile food pantry that provides food to those in need twice a month.,No restrictions Area Served:  Eagle County,"2nd and 4th Wednesday of the month, 5:00pm-6:30pm",(970) 328-7900,https://eaglevalleycf.org/the-community-market,39.6268967,-106.5109301
Mobile Food Pantry (Two Rivers),THE COMMUNITY MARKET,80 Lakeshore Dr,Gypsum,CO,81637,EAGLE COUNTY,"Mobile food pantry that provides food help to residents of Dotsero, CO.",No restrictions Area Served: Eagle County,"Thursday, 4:30pm-5:30pm",(970) 328-7900,https://eaglevalleycf.org/the-community-market,39.615505,-106.895722
Food Pantry,EAGLE UNITED METHODIST CHURCH,333 E 2nd St,Eagle,CO,81631,EAGLE COUNTY,Offers a weekly congregate food event.,No restrictions applied Area Served: Eagle County,"Monday, 4:30 p.m. - 6 p.m.",(970) 328-6598,http://umcofeaglevalley.org/Simple-Supper-Community-Food-Market,39.6553417,-106.8252469
Food Pantry (Parachute),LIFT-UP,201 E 1st St,Parachute,CO,81635,GARFIELD COUNTY,Provides a food box to individuals and families in need at the LIFT-UP Warehouse,No restrictions Area Served: Garfield County,"Monday, 3 pm - 6 pm",(970) 285-0221,http://www.liftup.org,39.453122,-108.0510757
Food Pantry (Aspen),LIFT-UP,465 N Mill St,Aspen,CO,81611,PITKIN COUNTY,"LIFT-UP collects, stores and distributes food and household products to low-income and food insecure individuals and families",No restrictions Area Served:  Piktin County,"Tuesdays, 2 pm - 6 pm",(970) 544-2009,http://www.liftup.org,39.1936369,-106.8183609
"Food Pantry, Catholic Charities (Glenwood Springs)",LIFT-UP,1004 Grand Ave,Glenwood Springs,CO,81601,GARFIELD COUNTY,"LIFT-UP collects, stores and distributes food and household products to low-income and food insecure individuals and families.",No restrictions Area Served: Garfield County,"Thursday, 10:30 am - 12:30 pm",(970) 945-2005,http://www.liftup.org,39.5439113,-107.3247246
"Food Pantry, Third Street Center (Carbondale)",LIFT-UP,520 S 3rd St Unit #35,Carbondale,CO,81623,GARFIELD COUNTY,"LIFT-UP collects, stores and distributes food and household products to low-income and food insecure",individuals and families,No restrictions Area Served: Garfield County,"Monday, 10:30 am - 12:30 pm; Wednesday, 4 pm - 5pm",(970) 625-4496,39.396907,-107.2098347
Food Assistance,GILPIN COUNTY DEPARTMENT OF HUMAN SERVICES,101 Norton Dr,Black Hawk,CO,80422,GILPIN COUNTY,Offers a food pantry to residents in need. Also distributes The Emergency Food Assistance Program (TEFAP) for income-qualified individuals and families...,Residents of Gilpin County Area Served: Gilpin County,"Monday - Friday, 9 a.m. - 4:30 p.m. (Administrati...",(720) 432-6120,http://gilpincounty.org,39.838343,-105.478229
Food Pantry,DENVER INNER CITY PARISH,1212 Mariposa St,Denver,CO,80204,DENVER COUNTY,Offers a client-choice food pantry to the community.,"No restrictions applied Area Served:  Adams, Arapahoe, Broomfield, Denver, Douglas, Jefferson counties","Monday - Friday, 9 a.m. - 3 p.m. (Walk-In Hours)",(303) 629-0636 Ext 6,http://dicp.org/hunger,39.7356182,-105.0024306
Food Assistance,LOVE INC OF THE YAMPA VALLEY,2218 Baker Dr,Craig,CO,81625,MOFFAT COUNTY,Provides food to qualified individuals and families through: The Emergency Food Assistance Program (TEFAP) The Commodity Supplemental Food Program (CSFP) Donation...,"For TEFAP assistance, households must meet the following income guidelines or be participating in one of the programs l...","Monday, 10:30 a.m. (Until Supplies Last)",(970) 826-4400,http://loveincyampavalley.org/services,40.5179151,-107.5214063
Food Pantry - Mobile Market Richmond Apartments,CARE AND SHARE - PUEBLO DISTRIBUTION CENTER,165 Central Main St,Pueblo,CO,81003,PUEBLO COUNTY,"Mobile food market, bring you own bags","Open to the community. All Richmond, Union Plaza and Vail tenants are welcome. Area Served:  Pueblo County",Hours Vary,(719) 546-2780,https://careandshare.org,38.2651622,-104.6106228
Food Pantry,CALVARY CHURCH AURORA,18900 E Hampden Ave,Aurora,CO,80013,ARAPAHOE COUNTY,Provides food boxes once a month.,Residents of the service area Area Served:  Arapahoe County; City of Aurora,"Thursday, 10 a.m. - 12 p.m.",(303) 628-7200,http://calvaryco.church,39.6525576,-104.767041
Food Pantry for Children,ROARING FORK SCHOOL DISTRICT,600 Southside Dr,Basalt,CO,81621,PITKIN COUNTY,Offers grab-and-go food for children 17 years and younger. Visit the website or call for information on the menu and pick-up process...,Children 17 years and younger Area Served:  Pitkin County,"Wednesday, 4:30 pm - 5:30 pm",(970) 384-6007,https://www.rfsd.k12.co.us/en-US,39.362585,-107.0370989
Food Pantry for Children,ROARING FORK SCHOOL DISTRICT,2270 CO-133,Carbondale,CO,81623,GARFIELD COUNTY,Offers grab-and-go food for children 17 years and younger. Visit the website or call for information on the menu and pick-up process...,Children 17 years and younger Area Served: Pitkin County,"Wednesday, 4:30 pm - 5:30 pm",(970) 384-6007,https://www.rfsd.k12.co.us/en-US,39.3902998,-107.2078702
Day Center,GATHERING PLACE,1535 High St,Denver,CO,80218,DENVER COUNTY,Offers the following short-term services through a resource center: Shower Laundry facilities Assistance with Colorado IDs Food pantry Clothing Onsite computers 3 meals a day,"Women, children, and transgender individuals as well as children 17 and younger that are accompanied by a legal guardian","Monday, Wednesday - Friday, 8:30 a.m. - 5 p.m.; T...",(303) 321-4198,http://tgpdenver.org,39.740758,-104.9650989
Food Pantry - My Neighbors Cupboard,CARE AND SHARE - PUEBLO DISTRIBUTION CENTER,409 Broadway,Penrose,CO,81240,FREMONT COUNTY,Food Pantry providing food to those in need.,Area Served: Fremont County and surrounding areas,Hours Vary,(719) 494-6584,No Website Listed,38.4249284,-105.0224405
Food Pantry - Oakshire Trails,CARE AND SHARE - PUEBLO DISTRIBUTION CENTER,2300 Oakshire Ln,Pueblo,CO,81001,PUEBLO COUNTY,Food Pantry providing food to those in need.,Hours Vary,(719) 296-6995,No Website Listed,,38.285426,-104.57064
Food Pantry - Pueblo United,CARE AND SHARE - PUEBLO DISTRIBUTION CENTER,2315 Sprague Ave,Pueblo,CO,81004,PUEBLO COUNTY,Food Pantry providing food to those in need.,Area Served:  Pueblo County,Hours Vary,(719) 696-8586,No Website Listed,38.240536,-104.638127
Food Pantry - St. Anne's Church,CARE AND SHARE - PUEBLO DISTRIBUTION CENTER,2701 E 12th St,Pueblo,CO,81001,PUEBLO COUNTY,Food Pantry providing food to those in need.,Area Served:  Pueblo County,Hours Vary,(719) 296-6995,No Website Listed,38.2795615,-104.5625866
Food Pantry - RMSER Pueblo,CARE AND SHARE - PUEBLO DISTRIBUTION CENTER,330 Lake Ave,Pueblo,CO,81004,PUEBLO COUNTY,Food Pantry providing food to those in need.,Residents of Pueblo County Area Served:  Pueblo County,"Hours vary, see Service for specified Hours",(719) 296-6995,https://careandshare.org,38.2544273,-104.6203815
Food Pantry - Minnequa VFW 3641,CARE AND SHARE - PUEBLO DISTRIBUTION CENTER,724 E 4th St,Pueblo,CO,81001,PUEBLO COUNTY,Food Pantry providing food to those in need.,Residents of Pueblo County Area Served:  Pueblo County,"Hours vary, see Service for specified Hours",(719) 296-6995,https://careandshare.org,38.2708095,-104.5977886
Food Bank,LOUISVILLE UNITED METHODIST CHURCH,741 Jefferson Ave,Louisville,CO,80027,BOULDER COUNTY,Provides a curbside food bank for individuals in need. Food items include: Fresh produce Meat Milk Eggs Non-perishable items,Residents of the service area Area Served:  Cities of Louisville; Town of Superior,"Tuesday, 9 a.m. - 12 p.m.; Sunday, 9 a.m. - 10:30...",(303) 666-8812,http://louisvilleumc.org,39.9776097,-105.134954
Food Pantry,COMMUNITY FOOD BANK,476 28 1/2 Rd,Grand Junction,CO,81501,MESA COUNTY,"Offers food to community members in need up to 24 times per year. Offerings include pantry staples, such as: Canned and dried food Bread Tortillas Fresh fruits and veggies Dairy Eggs Meat Quantities are based on household size...",No restrictions applied Area Served: Mesa County,"Monday, Tuesday, Thursday, 12:30 p.m. - 5:30 p.m....",(970) 640-0336,http://foodbankgj.org,39.074185,-108.5239542
Food Pantry,DELTA COUNTY SALVATION ARMY,117 Meeker St,Delta,CO,81416,DELTA COUNTY,Food Pantry provides: - One pantry box allow each month to anyone in need no income requirements) - Those experiencing homelessness may receive one food bag per week...,"For Low-Income Individuals, Seniors and Families in Need Area Served: Delta County","Monday - Friday, 8 a.m. - 4:30 p.m. (administrati...",(970) 399-3584,https://www.facebook.com/TSADelta,38.7453647,-108.0696246
Food Pantry,WESTMINSTER PRESBYTERIAN CHURCH,3990 W 74th Ave,Westminster,CO,80030,ADAMS COUNTY,Offers a food pantry that provides a prepacked box of non-perishable items including: Frozen meat Fresh veggies (when available) Bread The following is also available: Specialty items for the community's culturally relevant food including: Rye flour Canned...,"Residents of the service area Area Served: Zip Codes Served:  80234, 8024, 80233, 80031, 80260, 80229, 80221, 80030, 80002...","Monday - Thursday, 9:30 am- 3 p.m. (Administrativ...",(303) 429-8508,http://westypres.org/ash-food-pantry/,39.8305556,-105.039722
Food Pantry,MONUMENT VIEW BIBLE CHURCH,1173 17 1/2 Rd,Fruita,CO,81521,MESA COUNTY,Offers food distribution for those in need. Call ahead to pre-register for same day distribution. A volunteer will help gather the food together with the participant...,No restrictions applied Area Served: Mesa County,"3rd Thursday, 10 a.m. - 11 a.m.; 3rd Saturday, 9 ...",(970) 730-7294,http://mvbcfruita.org/pantry,39.1456507,-108.7289798
Food Pantry (Carbondale),LIFT-UP,520 S 3rd St,Carbondale,CO,81623,GARFIELD COUNTY,Provides a food box to individuals and families in need at Third Street Center,No restrictions Area Served: Garfield County,"Monday, 10:30 am - 12:30 pm",(970) 963-1778,https://www.liftup.org,39.396907,-107.2098347
Food Pantry (Glenwood Springs),LIFT-UP,1004 Grand Ave,Glenwood Springs,CO,81601,GARFIELD COUNTY,No restrictions Area Served: Garfield County,"Thursday, 10:30 am - 12:30 pm",(970) 945-2005,https://www.liftup.org,,39.5439113,-107.3247246
Mobile Distribution Pantry (El Jebel),LIFT-UP,218 E Valley Rd,Carbondale,CO,81623,EAGLE CO,Non-perishable food boxes are distributed at Movie Land in El Jebel every Tuesday,No restrictions Area Served: Eagle County,"Tuesday, 11 am - 12:30 pm",(970) 963-1778,https://www.liftup.org,39.394551,-107.101789
Mobile Food Distribution (Snowmass),LIFT-UP,35037 CO-82,Aspen,CO,81611,PITKIN CO,Non-perishable food boxes are distributed at Brush Creek Intercept Lot,No limitations Area Served:  Pitkin County,"Wednesday, 12 pm - 2 pm",(970) 544-2009 (tel:(970) 544-2009),https://www.liftup.org,39.1959654,-106.8408724
Mobile Food Pantry (Glenwood Springs),LIFT-UP,195 Center Dr,Glenwood Springs,CO,81601,GARFIELD CO,Non-perishable food boxes are distributed 2nd and 4th Thursday of the month at the Two Rivers Community Schools,No restrictions Area Served: Garfield County,"2nd and 4th Thursday, 4 pm - 5 pm",(970) 945-2005,https://www.liftup.org,39.5623757,-107.3687662
Mobile Food Pantry (Glenwood Springs),LIFT-UP,120 Soccer Field Rd,Glenwood Springs,CO,81601,GARFIELD CO,Non-perishable food boxes are distributed at Glenwood Springs Middle School every Saturday,No Restrictions Area Served: Garfield County,"Saturday, 1:30 pm - 2:30 pm",(970) 945-2005,https://www.liftup.org,39.5621893,-107.3596852
Mobile Food Pantry (New Castle),LIFT-UP,880 Castle Valley Blvd,New Castle,CO,81647,GARFIELD CO,Food is distributed every 1st and 3rd Thursday of the month at City Market Parking Lot,No restrictions Area Served: Garfield County,"1st and 3rd Thursday, 4 pm - 5 pm",(970) 984-2115,https://www.liftup.org,39.5686653,-107.512828
Mobile Food Pantry (Parachute),LIFT-UP,201 E 1st St,Parachute,CO,81635,GARFIELD COUNTY,Provides food boxes at LIFT-UP Warehouse on Tuesdays,No restrictions Area Served: Garfield County,"Monday, 3 pm - 6 pm",(970) 285-0221,https://www.liftup.org,39.453122,-108.0510757
Mobile Food Pantry (Rifle),LIFT-UP,195 14th St Bdlg B,Rifle,CO,81650,GARFIELD COUNTY,Non-perishable food boxes are distributed once per week on Saturdays at the Garfield Human Services Building,No Restrictions Area Served:  Garfield County,"Saturday, 10 am - 11 am",(970) 625-4888,http://www.liftup.org,39.213129,-107.22866
Mobile Food Pantry (Silt),LIFT-UP,648 N 7th St,Silt,CO,81652,GARFIELD CO,Mobile food pantry meets at Silt Baseball Fields,No restrictions Area Served: Garfield County,"1st and 3rd in month, Friday, 4 pm - 5 pm",(970) 625-4888,https://www.liftup.org,39.5513993,-107.655653
Mobile Food Pantry,GRACE COMMUNITY CHURCH,16731 Woodgate Rd,Montrose,CO,81401,MONTROSE COUNTY,"Those in need of food can call the church and provide their name, phone number, address, and how many people are in the household and on Thursday after 5:00 p...",No restrictions applied Area Served: Montrose County,"Tuesday - Thursday, 9 a.m. - 12 p.m., 1 p.m. - 4 ...",(970) 249-5306,http://gracemontrose.org/mobilefoodrelief,38.4408301,-107.859736
Food Pantry,PROJECT WORTHMORE,1666 Elmira St,Aurora,CO,80010,ADAMS COUNTY,Provides a food pantry that offers fresh produce and a other non-perishable goods for asylum seekers at no cost.,"Immigrants and refugees Area Served:  Cities of Denver, Aurora","Monday - Thursday, 9 a.m. - 6 p.m.",(720) 460-1393,http://projectworthmore.org/programs/yu-meh-food-share/,39.7434429,-104.8724845
Food Pantry - Mt. Carmel Pueblo O^ce,CARE AND SHARE - PUEBLO DISTRIBUTION CENTER,1008 Minnequa Ave,Pueblo,CO,81004,PUEBLO COUNTY,MOBILE PANTRY - food pantry providing food to those in need.,Residents of Pueblo County Area Served: Pueblo County,Hours Vary,(719) 296-6995,https://careandshare.org,38.2343426,-104.6229552
Food Pantry,FAX PARTNERSHIP,6740 E Colfax Ave,Denver,CO,80220,DENVER COUNTY,Offers a food pantry for those is need. Food is available once a month per client.,"No restrictions applied Area Served:  Adams, Arapahoe, Denver counties","Monday - Friday, 9 a.m. - 4 p.m.",(303) 284-4292,http://thefaxdenver.com/our-work/residential-services-oice/,39.7400644,-104.9100043
Mobile Food Pantry,WE DON'T WASTE,4735 N Pecos St,Denver,CO,80211,DENVER COUNTY,Provides a mobile food pantry to those in need.,"No restrictions applied Area Served: Denver, Adams, Arapahoe, Jefferson, Douglas, Broomfield, Boulder, El Paso counties","1st Friday, 1 p.m. - 3 p.m.",(720) 943-2699,http://wedontwaste.org/mobile-food-markets,39.7623504,-105.0064418
Mobile Food Pantry,WE DON'T WASTE,3955 Steele St,Denver,CO,80205,DENVER COUNTY,Provides a mobile food pantry to those in need.,"No restrictions applied Area Served: Denver, Adams, Arapahoe, Jefferson, Douglas, Broomfield, Boulder, El Paso counties","1st Tuesday, 1 p.m. - 2:30 p.m.",(720) 943-2699,http://wedontwaste.org/mobile-food-markets,39.7720087,-104.951353
Food Pantry,NEDERLAND COMMUNITY CENTER,750 CO-72,Nederland,CO,80466,BOULDER COUNTY,Offers a food pantry and food boxes to people in need.,"Residents of the service area Area Served: Cities of Allenspark, Blackhawk, Nederland; Boulder, Gilpin, Jefferson counti...","Monday - Thursday, 8 a.m. - 8 p.m.; Friday, 8 a.m...",(720) 418-0892 (Food Pantry),http://nederlandfoodpantry.org,39.9646517,-105.5121659
Mobile Food Pantry (Glenwood Springs Middle School),WESTERN SLOPE FOOD BANK OF THE ROCKIES,130 Soccer Field Rd,Glenwood Springs,CO,81601,GARFIELD COUNTY,Mobile food pantry that provides food for individuals and families.,No restrictions Area Served: Garfield County,"Saturday, 1:30 pm - 2:30 pm",(970) 464-1138,http://www.foodbankrockies.org/ws,39.5624522,-107.3596818
Food Bank Network,LA PUENTE,301 Front St,Antonito,CO,81120,CONEJOS COUNTY,Provides a food pantry to those in need. This service is for those living in Alamosa County.,No restrictions applied Area Served:  Alamosa County,"Friday, 11 a.m. - 2 p.m.",(719) 589-4567,http://lapuentehome.org,37.074056,-106.007309
Food Bank Network,LA PUENTE,PO Box 1235,Alamosa,CO,81101,ALAMOSA COUNTY,Provides a food pantry to those in need. This service is for those living in Alamosa County.,No restrictions applied Area Served:  Alamosa County,Hours Vary,(719) 589-4567,http://lapuentehome.org,37.4701846,-105.8624658
Food Bank Network,LA PUENTE,17523 US-160,Blanca,CO,81123,COSTILLA COUNTY,Provides a food pantry to those in need. This service is for those living in Alamosa County.,No restrictions applied Area Served:  Alamosa County,"Monday - Thursday, 9 a.m. - 4 p.m.",(719) 589-4567,http://lapuentehome.org,37.4311741,-105.456362
Food Bank Network,LA PUENTE,8197 CO-15,La Jara,CO,81140,CONEJOS COUNTY,Provides a food pantry to those in need. This service is for those living in Alamosa County.,No restrictions applied Area Served: Alamosa County,"1st Monday, Saturday, 10 a.m. -12 p.m.",(719) 589-4567,http://lapuentehome.org,37.276566,-106.007989
Food Bank Network,LA PUENTE,350 S Worth St,Center,CO,81125,Alamosa County,Provides a food pantry to those in need. This service is for those living in Alamosa County.,No restrictions applied Area Served: Alamosa County,Hours Vary,(719) 589-4567,http://lapuentehome.org,37.752872,-106.1082769
Food Bank Network,LA PUENTE,802 Rio Grande Ave,Creede,CO,81130,MINERAL COUNTY,Provides a food pantry to those in need. This service is for those living in Alamosa County.,No restrictions applied Area Served: Alamosa County,"Monday - Friday, 8 a.m. -12 p.m., 1 p.m. - 4 p.m.",(719) 589-4567,http://lapuentehome.org,37.8469816,-106.9266408
Food Bank Network,LA PUENTE,182 E Galena Ave,Crestone,CO,81131,ALAMOSA COUNTY,Provides a food pantry to those in need. This service is for those living in Alamosa County.,No restrictions applied Area Served: Alamosa County,"Wednesday, 9 a.m. -12 p.m.; Last Saturday, 10 a.m...",(719) 589-4567,http://lapuentehome.org,37.9955316,-105.6980967
Food Bank Network,LA PUENTE,630 Spruce St,Del Norte,CO,81132,Alamosa County,Provides a food pantry to those in need. This service is for those living in Alamosa County.,No restrictions applied Area Served: Alamosa County,"3rd Saturday, 9 a.m. - 12 p.m.",(719) 589-4567,http://lapuentehome.org,37.6773214,-106.3533324
Food Bank Network,LA PUENTE,626 Beaubien Ave,Fort Garland,CO,81133,COSTILLA COUNTY,Provides a food pantry to those in need. This service is for those living in Alamosa County.,No restrictions applied Area Served: Alamosa County,"Monday, 1 p.m. - 4 p.m.",(719) 589-4567,http://lapuentehome.org,37.4297826,-105.4318159
Food Bank Network,LA PUENTE,19617 US Hwy 285,La Jara,CO,81140,CONEJOS COUNTY,Provides a food pantry to those in need. This service is for those living in Alamosa County.,No restrictions applied Area Served:  Alamosa County,"1st Monday, 9:45 a.m. - 11 a.m.; Wednesday, 2:30 ...",(719) 589-4567,http://lapuentehome.org,37.2717829,-105.9641171
Food Bank Network,LA PUENTE,CO-17 & Moffat Way,Moffat,CO,81143,SAGUACHE COUNTY,Provides a food pantry to those in need. This service is for those living in Alamosa County.,No restrictions applied Area Served: Alamosa County,"Tuesday, 2 p.m. - 4 p.m.",(719) 589-4567,http://lapuentehome.org,37.999528,-105.905457
Food Bank Network,LA PUENTE,245 Washington St,Monte Vista,CO,81144,RIO GRANDE COUNTY,Provides a food pantry to those in need. This service is for those living in Alamosa County.,No restrictions applied Area Served: Alamosa County,"Tuesday, Friday, 2 p.m. - 4 p.m.",(719) 589-4567,http://lapuentehome.org,37.5785986,-106.1481967
Food Bank Network,LA PUENTE,605 Christy Ave,Saguache,CO,81149,SAGUACHE COUNTY,Provides a food pantry to those in need. This service is for those living in Alamosa County.,No restrictions applied Area Served: Alamosa County,"Monday - Friday, 8 a.m. - 4 p.m.",(719) 589-4567,http://lapuentehome.org,38.0857105,-106.1396939
Food Bank Network,LA PUENTE,Calle De Gallo & 5th St,San Luis,CO,81152,COSTILLA COUNTY,Provides a food pantry to those in need. This service is for those living in Alamosa County.,No restrictions applied Area Served: Alamosa County,"Monday, 1 p.m. - 3 p.m.",(719) 589-4567,http://lapuentehome.org,38.083641,-106.138144
Food and Supplies,SAINT MARGARET OF CASTELLO FAMILY CENTER,3005 W 29th Ave,Denver,CO,80211,DENVER COUNTY,"Offers food and supplies, including: Children's clothing Baby clothes Diapers",No restrictions applied Area Served:  Denver County,"Wednesday, 1 p.m. - 3 p.m.",(303) 455-3613,http://stdominicdenver.org,39.7585593,-105.0254446
Food Pantry,SACRED HEART CATHOLIC CHURCH,726 3rd St,Alamosa,CO,81101,ALAMOSA COUNTY,Offers a no-cost food pantry.,No restrictions applied Area Served:  Alamosa County,"Monday - Friday, 9 a.m. - 4 p.m.",(719) 589-5829,No Website Listed,37.4703003,-105.8676567
Food Pantry,HISPANIC SDA CHURCH OLATHE,203 S 3rd St,Montrose,CO,81401,MONTROSE COUNTY,Provides a food pantry every other Thursday.,No restrictions Area Served:  Montrose County,"Every other Thursday, 12 p.m. - 2 p.m.",(970) 323-8639,http://olathehispanicco.adventistchurch.org/,38.4759108,-107.8761231
Mobile Food Pantry,DENVER INNER CITY PARISH,1212 Mariposa St,Denver,CO,80204,DENVER COUNTY,Offers a mobile food pantry for those in need.,"No restrictions applied Area Served:  Zip Codes Served:  80204, 80237, 80123","Monday - Friday, 9 a.m. - 3 p.m. (Walk-In Hours)",(303) 629-0636,http://dicp.org/hunger,39.7356182,-105.0024306
Food Assistance,LOVE INC OF THE YAMPA VALLEY,202 E Jefferson Ave,Hayden,CO,81639,ROUTT COUNTY,Provides food to qualified individuals and families through: The Emergency Food Assistance Program (TEFAP) The Commodity Supplemental Food Program (CSFP) Donation...,"For TEFAP assistance, households must meet the following income guidelines or be participating in one of the programs l...","Monday, 10:30 a.m. (Until Supplies Last)",(970) 826-4400,http://loveincyampavalley.org/services,40.4965193,-107.2524285
Food Pantry,SERVE 6.8 RESOURCE CENTER,601 21st Ave,Greeley,CO,80631,WELD COUNTY,Provides food for those in need. Select locations also provide: Hygiene items Cleaning supplies Pet food,"No restrictions applied Area Served:  Larimer, Weld counties","Thursday, 10 a.m. - 1 p.m.",(970) 449-5401,http://serve68.org/resource-center/,40.4272713,-104.711598
Food Pantry,PIKES PEAK PARK BAPTIST CHURCH,3725 El Morro Rd,Colorado Springs,CO,80910,EL PASO COUNTY,Offers food baskets to those in need.,No restrictions applied Area Served:  El Paso County,"Monday - Thursday, 9 a.m. - 4 p.m.; Thursday, 11:...",(719) 597-9004,http://pikespeakparkbaptistchurch.org/support,38.8003083,-104.7599491
Fresh Food Pantry,NEW PEARL CHRUCH,2601 W Hampden Ave Unit B & C,Englewood,CO,80110,ARAPAHOE COUNTY,"Offers a food pantry that gives clients access to healthy and nutritious foods, including:Fresh meat Produce Vegetables",Must be aged 15 and older Area Served: Arapahoe County,"Thursday, 5 p.m. - 7 p.m.; Saturday, 12 p.m. - 1 ...",(720) 271-3843,http://thedenverpearl.org,39.652934,-104.95713
Supplemental Food Box Program,GRACE BIBLE FELLOWSHIP,15559 County Rd 2,Brighton,CO,80603,WELD COUNTY,Provides supplemental food boxes via drive-through that may contain: Protein Dairy Produce Refrigerated items Dry goods Bread Dessert,"No restrictions applied Area Served: Cities of Brighton, Lochbuie, Fort Lupton, Adams, Weld counties","Tuesday, 9:30 a.m. - 12:30 p.m.",(303) 659-6487,http://wearegrace.com,40.00054,-104.762674
Client Choice Food Pantry,CARE AND SHARE FOOD BANK,1520 Verde Dr,Colorado Springs,CO,80910,EL PASO COUNTY,Offers a food pantry where clients can browse and choose food in a grocery-style setting.,Residents of the service area Area Served: El Paso County,"Monday, Thursday, 2 p.m. - 6 p.m.",(719) 888-6851,http://sunnysidemarket.org,38.8106719,-104.7705282
"Food, Clothing, and Housewares",COMMUNITY OUTREACH CENTER,1100 11th Ave,Greeley,CO,80631,WELD COUNTY,"Provides assistance to community members in need, including: Food Small housewares Clothing",Residents of the service area Area Served: Weld County,"Monday - Thursday, 8:30 a.m. - 4:30 p.m.",(970) 353-9242,http://cocgreeley.com,40.421074,-104.696156
Food Pantry,FATHER DYER UNITED METHODIST CHURCH,310 Wellington Rd,Breckenridge,CO,80424,SUMMIT COUNTY,Provides food for individuals and families in need.,No restrictions applied Area Served: Summit County,"Monday, Wednesday - Friday, 9 a.m. - 2 p.m.; Sund...",(970) 453-2250,http://fatherdyer.church/foodpantry,39.4860023,-106.0405125
Food Pantry and Commodities,LAS ANIMAS HELPING HANDS,746 Bent Ave,Las Animas,CO,81054,BENT COUNTY,Emergency food and USDA Commodities for residents in need.,Residents of Bent County Area Served:  Bent County,"Monday, 8 a.m - 10 a.m. (Food Pantry); 2nd Monday...",(719) 468-3396,http://www.lasanimashelpinghands.org,38.0654101,-103.2197979
Mobile Food Pantry,FOOD BANK OF THE ROCKIES,3241 F 1/4 Rd,Clifton,CO,81520,MESA COUNTY,Provides food to communities by sending semi-trucks to set locations and distributing food for 1-2 hours.,"No restrictions applied Area Served:  Adams, Arapahoe, Delta, Denver, Douglas, Eagle, Elbert, Garfield, Gilpin, Grand, Ja...","4th Saturday, 9 a.m. - 11 a.m.",(303) 375-5853,http://foodbankrockies.org,39.0945871,-108.4512434
Mobile Food Pantry,FOOD BANK OF THE ROCKIES,Gunnison River Dr.,Delta,CO,81416,DELTA COUNTY,Provides food to communities by sending semi-trucks to set locations and distributing food for 1-2 hours.,"No restrictions applied Area Served: Adams, Arapahoe, Delta, Denver, Douglas, Eagle, Elbert, Garfield, Gilpin, Grand, Ja...","3rd Wednesday, 1 p.m. - 3 p.m. (Fall, Winter, Spr...",(303) 375-5853,http://foodbankrockies.org,38.7487914,-108.0712291
Mobile Food Pantry,FOOD BANK OF THE ROCKIES,218 E Valley Rd,Carbondale,CO,81623,EAGLE COUNTY,Provides food to communities by sending semi-trucks to set locations and distributing food for 1-2 hours.,"No restrictions applied Area Served: Adams, Arapahoe, Delta, Denver, Douglas, Eagle, Elbert, Garfield, Gilpin, Grand, Ja...","Tuesday, 8:30 a.m. - 9:30 a.m.",(303) 375-5853,http://foodbankrockies.org,39.394551,-107.101789
Mobile Food Pantry,FOOD BANK OF THE ROCKIES,120 Soccer Field Rd,Glenwood Springs,CO,81601,GARFIELD COUNTY,Provides food to communities by sending semi-trucks to set locations and distributing food for 1-2 hours.,"No restrictions applied Area Served: Adams, Arapahoe, Delta, Denver, Douglas, Eagle, Elbert, Garfield, Gilpin, Grand, Ja...","Saturday, 1:30 p.m. - 3:30 p.m.",(303) 375-5853,http://foodbankrockies.org,39.5621893,-107.3596852
Mobile Food Pantry,FOOD BANK OF THE ROCKIES,550 North Ave,Grand Junction,CO,81501,MESA COUNTY,Provides food to communities by sending semi-trucks to set locations and distributing food for 1-2 hours.,"No restrictions applied Area Served: Adams, Arapahoe, Delta, Denver, Douglas, Eagle, Elbert, Garfield, Gilpin, Grand, Ja...","2nd Tuesday, 4th Thursday, 3 p.m. - 4 p.m.",(303) 375-5853,http://foodbankrockies.org,39.078099,-108.5635834
Mobile Food Pantry,FOOD BANK OF THE ROCKIES,853 Sulphur Creek Rd,Meeker,CO,81641,RIO BLANCO COUNTY,Provides food to communities by sending semi-trucks to set locations and distributing food for 1-2 hours.,"No restrictions applied Area Served: Adams, Arapahoe, Delta, Denver, Douglas, Eagle, Elbert, Garfield, Gilpin, Grand, Ja...","2nd Thursday, 10:30 a.m. - 12 p.m.",(303) 375-5853,http://foodbankrockies.org,40.0448458,-107.9086782
Mobile Food Pantry,FOOD BANK OF THE ROCKIES,2785 US-50,Grand Junction,CO,81503,MESA COUNTY,Provides food to communities by sending semi-trucks to set locations and distributing food for 1-2 hours.,"No restrictions applied Area Served: Adams, Arapahoe, Delta, Denver, Douglas, Eagle, Elbert, Garfield, Gilpin, Grand, Ja...","2nd Monday, 4 p.m. - 6 p.m.",(303) 375-5853,http://foodbankrockies.org,39.0423565,-108.5507822
Mobile Food Pantry,FOOD BANK OF THE ROCKIES,17497 CO-64,Rangely,CO,81648,RIO BLANCO COUNTY,Provides food to communities by sending semi-trucks to set locations and distributing food for 1-2 hours.,"No restrictions applied Area Served: Adams, Arapahoe, Delta, Denver, Douglas, Eagle, Elbert, Garfield, Gilpin, Grand, Ja...","1st Thursday, 1 p.m. - 2:30 p.m.",(303) 375-5853,http://foodbankrockies.org,40.0901128,-108.812164
Mobile Food Pantry,FOOD BANK OF THE ROCKIES,195 14th St,Rifle,CO,81650,GARFIELD COUNTY,Provides food to communities by sending semi-trucks to set locations and distributing food for 1-2 hours.,"No restrictions applied Area Served: Adams, Arapahoe, Delta, Denver, Douglas, Eagle, Elbert, Garfield, Gilpin, Grand, Ja...","Saturday, 10 a.m. - 11 a.m.",(303) 375-5853,http://foodbankrockies.org,39.5415515,-107.785072
Mobile Food Pantry,FOOD BANK OF THE ROCKIES,38700 CO-82,Aspen,CO,81611,PITKIN COUNTY,Provides food to communities by sending semi-trucks to set locations and distributing food for 1-2 hours.,"No restrictions applied Area Served: Adams, Arapahoe, Delta, Denver, Douglas, Eagle, Elbert, Garfield, Gilpin, Grand, Ja...","2nd, 4th Tuesday, 5:30 p.m. - 6:30 p.m.",(303) 375-5853,http://foodbankrockies.org,39.1959654,-106.8408724
Homeless & Runaway Youth Services,MORGAN COUNTY INTERAGENCY OVERSIGHT GROUP,815 W Platte Ave,Fort Morgan,CO,80701,MORGAN COUNTY,Provides services to unaccompanied homeless/runaway youth. Services include: Food Clothing Hygiene items,Unaccompanied youth aged 12-18 years Area Served: Morgan County,"Monday - Friday, 8 a.m. - 5 p.m.",(970) 467-4214,http://morgancountyiog.com,40.2540921,-103.8121917
Warming Shelter,SANCTUARY CHURCH,1930 W Colorado Ave,Colorado Springs,CO,80904,EL PASO COUNTY,Offers a temporary warming shelter when the temperature drops below 20 degrees. Food is provided and pets are allowed.,No Restrictions Applied Area Served: El Paso County,"Monday - Thursday, 10 a.m. - 2 p.m.",(719) 634-7232,http://thesanctuarywestside.org,38.8429159,-104.8542564
Food Pantry,LIVING GRACE BAPTIST CHURCH,4800 Hill-N-Park Dr,Greeley,CO,80634,WELD COUNTY,Provides a food pantry for those in need in the community.,No restrictions applied Area Served: Weld County,"Monday, 1 p.m. - 4 p.m.; Thursday, 5 p.m. - 6:30 ...",(720) 213-8559,No Website Listed,40.364362,-104.746781
Pet Food Pantry,NOCO HUMANE,1620 42nd St,Evans,CO,80620,WELD COUNTY,Provides pet food for cats and dogs.,No restrictions applied Area Served: Weld County,"Monday - Friday, 12 p.m. - 6 p.m.; Saturday, Sund...",(970) 506-9550,http://nocohumane.org,40.37003,-104.705316
Emergency Food Bank,MONTE VISTA EMERGENCY FOOD BANK,245 Washington St,Monte Vista,CO,81144,RIO GRANDE COUNTY,Provides a food bank to hungry families and individuals.,No restrictions applied Area Served: Rio Grande County,"Tuesday, Friday, 2 p.m. - 4 p.m.",(719) 852-4851,No Website Listed,37.5785986,-106.1481967
Food Pantry,SERVE 6.8 RESOURCE CENTER,305 W Swallow Rd,Fort Collins,CO,80526,LARIMER COUNTY,Provides food for those in need. Select locations also provide: Hygiene items Cleaning supplies Pet food,"No restrictions applied Area Served: Larimer, Weld counties","Wednesday, 12 p.m. - 3 p.m.",(970) 449-5401,http://serve68.org/resource-center/,40.5448426,-105.0812299
Food Pantry,SERVE 6.8 RESOURCE CENTER,3000 W 16th St,Greeley,CO,80634,WELD COUNTY,Provides food for those in need. Select locations also provide:Hygiene itemsCleaning suppliesPet food,"No restrictions applied Area Served: Larimer, Weld counties","Tuesday, 10 a.m. - 1 p.m.",(970) 449-5401,http://serve68.org/resource-center/,40.4138387,-104.7296882
Food Pantry,SERVE 6.8 RESOURCE CENTER,4754 W 31st St,Greeley,CO,80634,WELD COUNTY,Provides food for those in need. Select locations also provide: Hygiene items Cleaning supplies Pet food,"No restrictions applied Area Served: Larimer, Weld counties","4th Thursday, 10 a.m. - 12 p.m.",(970) 449-5401,http://serve68.org/resource-center/,40.3871217,-104.7728991
Food Pantry,SERVE 6.8 RESOURCE CENTER,6502 E Crossroads Blvd.,Loveland,CO,80538,LARIMER COUNTY,Provides food for those in need. Select locations also provide:Hygiene items Cleaning supplies Pet food,"No restrictions applied Area Served: Larimer, Weld counties",Hours Vary (Building Hours),(970) 449-5401,http://serve68.org/resource-center/,40.435886,-104.97719
Food Pantry,SERVE 6.8 RESOURCE CENTER,186 Wilson Ave,Loveland,CO,80537,LARIMER COUNTY,Provides food for those in need. Select locations also provide:Hygiene items Cleaning supplies Pet food,"No restrictions applied Area Served: Larimer, Weld counties","4th Saturday, 10 a.m. - 12 p.m.",(970) 449-5401,http://serve68.org/resource-center/,40.3915255,-105.1153555
Food Pantry,SERVE 6.8 RESOURCE CENTER,6630 Brittany Dr,Fort Collins,CO,80525,LARIMER COUNTY,Provides food for those in need. Select locations also provide:Hygiene items Cleaning supplies Pet food,"No restrictions applied Area Served: Larimer, Weld counties","3rd Saturday, 10 a.m. - 11:30 a.m.",(970) 449-5401,http://serve68.org/resource-center/,40.4942339,-105.0615845
Food Pantry,JOYFUL JOURNEYS COMMUNITY ENRICHMENT,6900 W 117th Ave Suite 400,Broomfield,CO,80020,BROOMFIELD COUNTY,Offers a donation-based food pantry.,No restrictions applied Area Served: Statewide,"Monday - Saturday, 10 a.m. - 6 p.m.",(303) 667-9695,http://joyfuljourneys.org/food-pantry,39.9088316,-105.0732332
Food Pantry,SERVE 6.8 RESOURCE CENTER,1015 9th Ave,Greeley,CO,80631,WELD COUNTY,Provides food for those in need. Select locations also provide:Hygiene items Cleaning supplies Pet food,"No restrictions applied Area Served: Larimer, Weld counties","Tuesday, 11 a.m. - 1 p.m.",(970) 449-5401,http://serve68.org/resource-center/,40.4222626,-104.6927514
Food Pantry,DENVER INNER CITY PARISH,185 Lincoln Ave,Nunn,CO,80648,WELD COUNTY,Offers a client-choice food pantry to the community.,"No restrictions applied Area Served: Adams, Arapahoe, Broomfield, Denver, Douglas, Jefferson counties","Saturday, 9 a.m. - 1 p.m.",(303) 629-0636 Ext 6,http://dicp.org/hunger,40.7063105,-104.7823211
Food Pantry,CANYON VIEW VINEYARD CHURCH,2790 Belford Ave,Grand Junction,CO,81501,MESA COUNTY,Offers food assistance and groceries to families and individuals facing food insecurity.,No restrictions applied Area Served: Mesa County,"3rd Sunday, 12 p.m. - 1 p.m. (Food Pantry)",(970) 242-7970,http://canyonviewchurch.com,39.0755957,-108.5338936
LGBTQ+ Youth Support Services,INSIDE/OUT YOUTH SERVICES,516 W Colorado Ave,Colorado Springs,CO,80905,EL PASO COUNTY,"Provides support and activities for LGBTQIA+ youth who are questioning their sexuality. Offers a supervised drop-in recreation center, including: Support and discussion groups Food and clothing pantry Clothing Counseling referrals Suicide prevention education Sexual health education Leadership development opportunities Career and financial skills buildin...",Youth aged 13-22 who identify as LGBTQIA+ Area Served: El Paso County,"Monday - Friday, 3 p.m. - 7 p.m.",(719) 328-1056,http://insideoutys.org,38.8328295,-104.8347161
Emergency Food Assistance for Low-Income Households,SILVER KEY SENIOR SERVICES,1605 S Murray Blvd,Colorado Springs,CO,80916,EL PASO COUNTY,Provides emergency food assistance to low-income households through The Emergency Food Assistance Program (TEFAP).,Individuals must meet income guidelines or be participants in one of the following programs: Everyday Eats (CSFP) Supplem...,"Monday - Friday, 8 a.m. - 5 p.m.",(719) 884-2300,https://silverkey.org/services/senior-assistance/food-pantry/,38.8099777,-104.7490379
Food Pantry,CLEAR CREEK COUNTY DEPARTMENT OF HUMAN SERVICES,1969 Miner St PO Box 3669,Idaho Springs,CO,80452,CLEAR CREEK COUNTY,Provides food for those in the community facing food insecurity.,No restrictions applied Area Served: Clear Creek County,"Monday - Thursday, 7:30 a.m. - 5:30 p.m.",(303) 670-7550,http://clearcreekcounty.us/,39.7419684,-105.5120536
Food Box Distribution,PIKES PEAK UNITED WAY,1205 Potter Dr,Colorado Springs,CO,80909,EL PASO COUNTY,"Provides food boxes to anyone in need, using a drive-thru system.",No restrictions applied Area Served: Statewide,"1st, 3rd, Thursday, 10 a.m. (Until Supplies Last)",(719) 955-0742,No Website Listed,38.8495804,-104.7510448
Food Bank,FOOD BANK OF MEEKER,809 Park Ave,Meeker,CO,81641,RIO BLANCO COUNTY,Offers a food bank to community members in need.,Must live in the service area Area Served: City of Meeker,"Wednesday, 10 a.m. - 2 p.m.",(970) 878-5904,http://facebook.com/MeekerColoradoFoodBank/,40.0379349,-107.9170272
Food Pantry,CHERRY HILLS COMMUNITY CHURCH,3900 Grace Blvd,Highlands Ranch,CO,80126,DOUGLAS COUNTY,Offers a food pantry for community members in need.,No restrictions applied Area Served: Statewide,"Tuesday, 9 a.m. - 11:30 a.m.; 1st, 3rd Tuesday, 5...",(303) 791-4100,http://plentifulapp.com/,39.538147,-104.937975
Food Pantry,ANGEL BASKETS,700 W Colorado Ave,Telluride,CO,81435,SAN MIGUEL COUNTY,Provides those in need with food once per week. TEFAP and CSFP available at the Norwood location. Also provides quarterly food gift certificates for seniors...,Individuals must reside in San Miguel County or the west end of Montrose County. Additional eligibility requirements ma...,"Thursday, 1 p.m. - 6 p.m.",(970) 708-1947 (Telluride Location),http://tellurideangelbaskets.org/food-security,37.9395482,-107.819459
Food Pantry,ANGEL BASKETS,1225 Summit St,Norwood,CO,81423,SAN MIGUEL COUNTY,Provides those in need with food once per week. TEFAP and CSFP available at the Norwood location. Also provides quarterly food gift certificates for seniors...,Individuals must reside in San Miguel County or the west end of Montrose County. Additional eligibility requirements ma...,"Friday, 3 p.m. - 6 p.m.",(970) 708-1947 (Telluride Location),http://tellurideangelbaskets.org/food-security,38.131842,-108.295408
Food Pantry,GUNNISON COUNTRY FOOD PANTRY,114 S 14th St,Gunnison,CO,81230,GUNNISON COUNTY,"Provides food assistance for community members in need. All items provided can vary depending on current donations. Food provided includes: Perishable and non-perishable items (produce, milk, eggs, meat, etc...",Residents of the service area Area Served: Gunnison County,"Monday, 1 p.m. - 4 p.m.; Wednesday, 1 p.m. - 7 p....",(970) 641-4156,http://gunnisoncountryfoodpantry.org,38.544154,-106.932009
Food Pantry,SANCTUARY CHURCH,4120 E Fountain Blvd,Colorado Springs,CO,80916,EL PASO COUNTY,Offers a food pantry for community members in need.,No restrictions applied Area Served: El Paso County,"1st, 3rd Saturday, 1 p.m. - 3 p.m.",(719) 634-7232,http://thesanctuarywestside.org,38.8147865,-104.7511668
Showering Facility,SANCTUARY CHURCH,1930 W Colorado Ave,Colorado Springs,CO,80904,EL PASO COUNTY,Provides a showering facility for community members in need.,No restrictions applied Area Served: El Paso County,"Monday - Thursday, 10 a.m. - 2 p.m.",(719) 634-7232,http://thesanctuarywestside.org,38.8429159,-104.8542564
Food Pantry,MESA COUNTY SALVATION ARMY,1235 N 4th St,Grand Junction,CO,81501,MESA COUNTY,"Provides a food box to individuals, seniors and families in the community. Also offers weekend bags for individuals with no place to store or cook food...",No restrictions applied Area Served: Mesa County,"Monday, Wednesday, Thursday, Friday, 9 a.m. - 12 ...",(970) 242-7513,http://grandjunction.salvationarmy.org,39.0787296,-108.566771
Food Pantry,PINE RIVER SHARES,115 Ute St,Ignacio,CO,81137,LA PLATA COUNTY,Provides food for community members in need of assistance. Also offers a backpack of food for students attending the following schools to take home every weekend: Bayfield Elementary SchoolBayfield Primary School Ignacio Elementary Schoo...,"Must be residents of Bayfield and the Pine River Valley Area Served: Zip Codes Served: 81122, 81137, 81121","2nd Saturday, 11 a.m. - 12 p.m. (Food Pantry)",(970) 884-6040,http://pinerivershares.org,37.1154518,-107.6319927
Food Pantry,EAGLE VALLEY COMMUNITY FOUNDATION,PO Box 1580,Vail,CO,81658,EAGLE COUNTY,Provides food pantry markets featuring: ProduceMeatDairyBread Shelf-stable grocery items,No restrictions applied Area Served: Eagle County,"Monday - Friday, 9 a.m. - 5 p.m.",(970) 688-0001,http://eaglevalleycf.org/our-programs/the-community-market/,39.6438028,-106.3888231
Food Pantry,CATHOLIC CHARITIES OF CENTRAL COLORADO,14 W Bijou St,Colorado Springs,CO,80903,EL PASO COUNTY,Works to alleviate a temporary gap in food security for individuals and families. Offers: Food and nutrition programs Kitchen food boxes Food pantr...,"Individuals must: Be housed (this includes sober-living, apartments, houses) Have a refrigerator Be able to access transpo...","Monday - Friday, 9 a.m. - 3 p.m.",(719) 866-6288,No Website Listed,38.8367183,-104.8256465
Hot Meal,CARING & SHARING SALIDA,346 G St,Salida,CO,81201,CHAFFEE COUNTY,Provides a hot meal for anyone in need through the soup kitchen.,No restrictions applied Area Served:Chaffee County,Tuesday - Saturday 12 p.m. - 2 p.m.,(719) 539-4849,http://salidacaringsharing.org,38.534898,-105.9949991
Meals - Soup Kitchen - Praise Community Church,CARE AND SHARE - PUEBLO DISTRIBUTION CENTER,215 N Pikes Peak Ave,Florence,CO,81226,FREMONT COUNTY,Provides a Soup Kitchen,Residents of Fremont County Area Served: Fremont County,"Hours vary, see Service for specific Hours",(719) 784-1184,No Website Listed,38.393003,-105.116899
Soup Kitchen,FIRST UNITED METHODIST CHURCH OF CORTEZ,515 N Park St,Cortez,CO,81321,MONTEZUMA COUNTY,"Provides a warm lunch to individuals, seniors and families in Cortez, Dolores and Mancos.","For Individuals, Seniors and Families in Cortez, Dolores or Mancos. Area Served: Montezuma County","Monday - Friday, 9:00 am - 1:00 pm (administratio...",(970) 565-3002,http://www.facebook.com/First-United-Methodist-Church-of-Cortez-Colorado-138944362924723,37.3547784,-108.575647
Soup Kitchen (Rifle),LIFT-UP,200 E 4th St,Rifle,CO,81650,GARFIELD COUNTY,"Provides a warm meal to individuals, seniors and families in need.","For Low-Income Individuals, Seniors, and Families in Need Area Served: Garfield County","Tuesday, Thursday, 5:00 pm - 6:00 pm (dinner serv...",(970) 625-4496,http://www.liftup.org,39.532635,-107.781842
Sandwich Line,CATHEDRAL BASILICA OF THE IMMACULATE CONCEPTION,1530 Logan St,Denver,CO,80203,DENVER COUNTY,Serves sandwiches and coffee.,No restrictions applied Area Served: Statewide,"Monday - Friday, 9 a.m. - 4 p.m. (Office Hours)",(303) 831-7010,No Website Listed,39.7406915,-104.9820667
Hot Meal,CATHOLIC CHARITIES OF CENTRAL COLORADO,14 W Bijou St,Colorado Springs,CO,80903,EL PASO COUNTY,Offers meals to the public. To-go meals are distributed on an as-requested basis.,No restrictions applied Area Served:El Paso County,"Monday - Friday, 9 a.m. - 3 p.m.",(719) 475-7314,http://ccharitiescc.org/emergency-essential-services/,38.8367183,-104.8256465
General Assistance,FRIENDS OF SAINT ANDREW,1525 Dallas St,Aurora,CO,80010,ADAMS COUNTY,Provides:Food basketsPacked lunches to-go Personal grooming items Information and referrals Mail services,Individuals must be resident of Aurora and temporarily living with family/friends Area Served: City of Aurora,"Monday - Friday, 10:15 a.m. - 12:30 p.m. (Packed ...",(303) 364-2329,No Website Listed,39.7407432,-104.8767468
Hot Meal,SPRINGS RESCUE MISSION,5 W Las Vegas St,Colorado Springs,CO,80903,EL PASO COUNTY,Provides hot meals and sack lunches for those is need.,Adults aged 18 years and over Area Served: El Paso County,"Sunday - Saturday, 8 a.m. - 5 p.m.",(719) 632-1822,http://springsrescuemission.org,38.8184191,-104.8263849
Hot Meal & Showering Facilities,LA PUENTE,913 State Ave,Alamosa,CO,81101,ALAMOSA COUNTY,Provides 3 meals a day and public showers that are open to the community and guests who are currently residing at the La Puente shelter...,"No restrictions applied Area Served:Alamosa, Conejos, Costilla, Rio Grande, Saguache counties","Monday - Sunday, 6 a.m. - 10 p.m.",(719) 589-5909,http://lapuentehome.org,37.4632287,-105.865571
Soup Kitchen,GRAND VALLEY CATHOLIC OUTREACH,245 S 1st St,Grand Junction,CO,81501,MESA COUNTY,"Provides a balanced, nutritional, and hot meals.",No restrictions applied Area Served: Mesa County,"Monday - Friday, 9 a.m. - 11:30 a.m.",Want to update this listing? Claim your Agency,(970) 243-0091,39.0655869,-108.5712505
Hot Meals,LOVELAND'S COMMUNITY KITCHEN,427 N Garfield Ave,Loveland,CO,80537,LARIMER COUNTY,Provides hot meals and a sustainable food bag to support those in need.,No restrictions applied Area Served:Larimer County,"Monday - Friday, 7 a.m. - 8:30 a.m. (Breakfast), ...",(970) 278-1726,http://lovelandcommunitykitchen.org,40.3958442,-105.0780425
Meals / Soup Kitchen,PUEBLO COMMUNITY SOUP KITCHEN,422 W 7th St,Pueblo,CO,81003,PUEBLO COUNTY,Provides a light breakfast (pastries and coffee) and a noon meal for individuals in need. Meals are served outdoors.,Any individuals desiring meal Area Served:Pueblo County,"Monday - Saturday, 7 a.m. - 12 p.m.; 8:30 a.m. -...",(719) 545-6540,https://www.coloradogives.org/organization/PuebloCommunitySoupKitchen,38.2732962,-104.6120585
Meal Services,HAVEN OF HOPE,1101 W 7th Ave,Denver,CO,80204,DENVER COUNTY,"Provides breakfast, four-course hot lunch, and sack lunches for those in need. Hygiene products, clothing,",and pet food are available upon request...,No restrictions applied Area Served:Statewide,"Monday - Friday, 7 a.m. - 9:30 a.m., 10:30 a.m. -...",(303) 607-0855,39.7274809,-105.0020582
Soup Kitchen,ST. BARNABAS OF THE VALLEY EPISCOPAL CHURCH,111 W North St,Cortez,CO,81321,MONTEZUMA COUNTY,Provides a soup kitchen offering take-out options for meals. Services include one bottled or canned beverage and assistance in bringing meal to sidewalk and ground level for guests...,No restrictions applied Area Served:Montezuma County,"Monday - Thursday, 9 a.m. - 12 p.m.",(970) 565-7865,http://stbarnabascortez.org/graces,37.3497649,-108.5868148
Soup Kitchen,THRIVE CHURCH,2720 W 92nd Ave,Federal Heights,CO,80260,ADAMS COUNTY,Provides hot meals to families in need.,Families experiencing food insecurity Area Served: Statewide,"Monday, 12 p.m. - 5 p.m.; Tuesday - Friday, 9 a.m...",(303) 428-9535,http://wethrive.org,39.8634187,-105.0211161
"Breakfast, Showers & Morning Access to Shelter",ALL ROADS SHELTER,4869 Broadway,Boulder,CO,80304,BOULDER COUNTY,Offers shelter intake for individuals experiencing homelessness to have access to shelter and services even if individuals did not stay overnight...,Adults experiencing homelessness who have gone through the countywide Coordinated Entry System Area Served: Boulder Coun...,"Monday - Sunday, Hours Vary",(303) 442-4646,http://allroadsboco.org/,40.0625882,-105.282615
Soup Kitchen,PIKES PEAK PARK BAPTIST CHURCH,3725 El Morro Rd,Colorado Springs,CO,80910,EL PASO COUNTY,Offers a hot meal to individuals in need.,No restrictions applied Area Served: El Paso County,"Monday - Thursday, 9 a.m. - 4 p.m.; Thursday, 11:...",(719) 597-9004,http://pppbc.org,38.8003083,-104.7599491
Soup Kitchen,MANNA SOUP KITCHEN,1100 Avenida Del Sol,Durango,CO,81301,LA PLATA COUNTY,"Provides quality, balanced meals in a safe and respectful environment for food-insecure community members.",No restrictions applied Area Served: La Plata County,"Monday - Friday, 8 a.m. - 4 p.m.",(970) 385-5095,http://mannasoupkitchen.org,37.2775658,-107.8859654
Emergency Food Box,MANNA SOUP KITCHEN,1100 Avenida Del Sol,Durango,CO,81301,LA PLATA COUNTY,"Provides emergency food box for individuals, seniors, and families in need.",Must be:Low-income individualsSeniorsFamilies experiencing food insecurity Area Served: La Plata County,"Monday - Friday, 8 a.m. - 4 p.m.",(970) 385-5095,http://mannasoupkitchen.org,37.2775658,-107.8859654
Food Market,MANNA SOUP KITCHEN,1100 Avenida Del Sol,Durango,CO,81301,LA PLATA COUNTY,Offers a food market for individuals to shop for themselves at no cost and no limit. All food is donated by: Individuals WalMart North and South City Markets Albertson's Starbucks Several other location...,Must be:Low-income individuals Seniors Families experiencing food insecurity Area Served: La Plata County,"Monday - Friday, 8 a.m. - 4 p.m.",(970) 385-5095,http://mannasoupkitchen.org,37.2775658,-107.8859654
Soup Kitchen (Glenwood Springs),LIFT-UP,824 Cooper Ave,Glenwood Springs,CO,81601,GARFIELD COUNTY,"Provides a warm meal to individuals, seniors and families in need.","For Low-Income Individuals, Seniors and Families in Need Area Served: Garfield County","Monday - Friday, 5:00 pm - 6:00 pm (dinner servic...",No Phone Listed,http://www.liftup.org,39.5462993,-107.3236027
SNAP Application Assistance & Outreach,MANNA SOUP KITCHEN,1100 Avenida Del Sol,Durango,CO,81301,LA PLATA COUNTY,Offers SNAP application assistance and answers questions to help make the process more approachable for clients. Also assists with six month re-determinations and case updates...,No restrictions applied Area Served: La Plata County,"Monday - Friday, 8 a.m. - 4 p.m.",(970) 385-5095,http://mannasoupkitchen.org/snap-assistance-outreach,37.2775658,-107.8859654
Grab-and-Go Hot Meals,LOAVES AND FISHES MINISTRIES OF FREMONT COUNTY,241 Justice Center Rd,Ca単on City,CO,81212,FREMONT COUNTY,Grab-and-Go Hot Meals are served every day and open to anyone who is hungry.,Anyone who is hungry Area Served: Fremont county,"Monday - Friday, 8 a.m. - 4 p.m.",(719) 275-0593,http://www.lfministries.org,38.4466001,-105.1832613
Homeless Assessment Coordinated Entry,PUEBLO COMMUNITY SOUP KITCHEN,422 W 7th St,Pueblo,CO,81003,PUEBLO COUNTY,Homeless Assessment tool for Coordinated Entry for unhoused individuals can be assessed for appropriate referrals,"Unhoused individuals that are truly unhoused, can't be living staying with family or friends Area Served: Pueblo County","Monday - Saturday, 7 a.m. - 12 p.m.; 8:30 a.m. -...",(719) 545-6540,https://www.coloradogives.org/organization/PuebloCommunitySoupKitchen,38.2732962,-104.6120585
